OrgID,Name,Size,Type,StAdd,City,Zip,County,State,Latitude,Longitude
1646,Visual Communications,Medium,"Broadcasters, Producers, TV, Film & Digital Media",120 Judge John Aiso Street,Los Angeles,90012,Los Angeles,CA,34.05052611,-118.2406327
1651,Reprise Theatre Company,Large,Performing Arts,1575 WESTWOOD BLVD,Los Angeles,90024,Los Angeles,CA,34.05269005,-118.4399006
1654,Floricanto Dance Theatre,Small,Performing Arts,2758 East Orange Grove Blvd.,Pasadena,91107,Los Angeles,CA,34.15813503,-118.0934659
1655,East West Players,Large,Performing Arts,120 N. Judge John Aiso Street,Los Angeles,90012,Los Angeles,CA,34.05052611,-118.2406327
1659,Rosanna Gamson/World Wide,Very Small,Performing Arts,343 Laveta Terrace,Los Angeles,90026,Los Angeles,CA,34.06687751,-118.2598333
1660,Saturday Night Bath Concert Fund,Very Small,Performing Arts,1804 Carnegie Lane #A,Redondo Beach,90278,Los Angeles,CA,33.87067024,-118.3796774
1661,"Los Angeles Chamber Orchestra Society, Inc., The",Large,Performing Arts,"707 Wilshire Blvd., Suite 1850",Los Angeles,90017,Los Angeles,CA,34.04926064,-118.2570236
1662,"Rachel Rosenthal Company, The",Small,Performing Arts,2847 S. Robertson Blvd.,Los Angeles,90034,Los Angeles,CA,34.03592007,-118.3891277
1671,Center for the Study of Political Graphics,Small,Support & Advocacy,8124 West Third Street,Los Angeles,90048,Los Angeles,CA,34.07197962,-118.366767
1683,Los Angeles County Museum of Art,Very Large,"Museums, Visual Arts, History",5905 Wilshire Boulevard,Los Angeles,90036,Los Angeles,CA,34.06372967,-118.3568903
1692,American Museum of Ceramic Art,Large,"Museums, Visual Arts, History",340 S Garey Ave,Pomona,91766,Los Angeles,CA,34.05656541,-117.7500116
1694,Santa Monica Museum of Art (SMMoA),Large,"Museums, Visual Arts, History",2525 Michigan Ave.,Santa Monica,90404,Los Angeles,CA,34.02719217,-118.4683509
1696,Zimmer Children's Museum,Large,"Museums, Visual Arts, History","6505 Wilshire Blvd., Suite 100",Los Angeles,90048,Los Angeles,CA,34.06402522,-118.3698933
1698,Pasadena Playhouse,Very Large,Performing Arts,39 S. El Molino Ave.,Pasadena,91101,Los Angeles,CA,34.14455523,-118.1369544
1703,Long Beach Museum of Art,Large,"Museums, Visual Arts, History",2300 East Ocean Blvd.,Long Beach,90803,Los Angeles,CA,33.76398383,-118.1660295
1709,Keshet Chaim Dance Ensemble,Small,Performing Arts,4155 Dixie Canyon Avenue,Sherman Oaks,91423,Los Angeles,CA,34.14536509,-118.4252507
1710,"NALIP National Association of Latino Independent Producers, Inc.",Medium,Community,1323 Lincoln Boulevard,Santa Monica,90401,Los Angeles,CA,34.02061802,-118.4924713
1711,Project X Foundation for Art and Criticism (X-TRA Magazine),Small,"Museums, Visual Arts, History",PO Box 41-437,Los Angeles,90041,Los Angeles,CA,34.137442,-118.206258
1715,Kim Eung Hwa Korean Dance Academy,Very Small,Education,945 S. Western Ave. #102,Los Angeles,90006,Los Angeles,CA,34.05416043,-118.309824
1718,Indecent Exposure Theater Company,Very Small,Performing Arts,"2152 Beachwood Terrace, Los Angeles, CA",Los Angeles,90068,Los Angeles,CA,34.120733,-118.335397
1719,24th Street Theatre,Medium,Performing Arts,1117 W. 24th Street,Los Angeles,90007,Los Angeles,CA,34.0346328,-118.2845079
1722,LAXART,Large,"Museums, Visual Arts, History",2640 S. La Cienega Blvd,Los Angeles,90034,Los Angeles,CA,34.03347591,-118.3779714
1725,"Arts & Services for Disabled, Inc.",Large,Community,"3962 N Studebaker Rd, Suite 206",Long Beach,90808,Los Angeles,CA,33.82858969,-118.0991124
1729,Hands for Hope,Small,Community,PO Box 812198,Los Angeles,90081,Los Angeles,CA,34.057006,-118.26656
1730,Academy for New Musical Theatre,Small,Performing Arts,5628 Vineland Avenue,North Hollywood,91601,Los Angeles,CA,34.17268344,-118.370197
1732,Keith Glassman Dance & Performance,Very Small,Performing Arts,6306 Tipton Way,Los Angeles,90042,Los Angeles,CA,34.13095969,-118.1843331
1733,SINERGIA Theatre Group/Grupo de Teatro SINERGIA,Small,Performing Arts,2332 West Fourth Street,Los Angeles,90057,Los Angeles,CA,34.06343295,-118.2756461
1734,IFFLA (Indian Film Festival of Los Angeles),Small,"Broadcasters, Producers, TV, Film & Digital Media",400 Hauser Blvd,Los Angeles,90036,Los Angeles,CA,34.06735896,-118.3498328
1753,Enrichment Works,Very Small,Education,5605 Woodman Avenue,Van Nuys,91401,Los Angeles,CA,34.1722074,-118.4313312
1755,Women In Film,Large,Support & Advocacy,6100 Wilshire Blvd.,Los Angeles,90048,Los Angeles,CA,34.06265276,-118.361832
1757,REP (Repertory East Playhouse),Small,Performing Arts,24266 Main Street,Newhall,91321,Los Angeles,CA,34.37812874,-118.5272923
1759,"Los Angeles Choreographers and Dancers, Inc.",Small,Performing Arts,351 S. Virgil Ave.,Los Angeles,90020,Los Angeles,CA,34.06743866,-118.2872936
1771,USVAA (United States Veterans' Artists Alliance),Very Small,Support & Advocacy,10858 Culver Blvd.,Culver City,90230,Los Angeles,CA,34.01080317,-118.4050157
1774,Circle X Theatre Company,Small,Performing Arts,2118 Panorama Terrace,Los Angeles,90039,Los Angeles,CA,34.09887933,-118.2708684
1778,"South Bay Chamber Music Society, Inc.",Very Small,Performing Arts,P.O. Box 2313,Palos Verdes Peninsula,90274,Los Angeles,CA,33.772826,-118.370775
1787,Thai Community Arts and Cultural Center,Very Small,Community,3015 Ocean Ave.,Venice,90291,Los Angeles,CA,33.98297367,-118.4615383
1788,Sound Art,Small,Support & Advocacy,923 17th Street,Santa Monica,90403,Los Angeles,CA,34.03285337,-118.4898928
1790,Center Theatre Group,Very Large,Performing Arts,601 West Temple Street,Los Angeles,90012,Los Angeles,CA,34.05823194,-118.2464167
1795,Pacific Asia Museum,Large,"Museums, Visual Arts, History",46 North Los Robles Avenue,Pasadena,91101,Los Angeles,CA,34.14664958,-118.1413606
1801,Museum of Latin American Art,Large,"Museums, Visual Arts, History",628 Alamitos,Long Beach,90802,Los Angeles,CA,33.77434433,-118.1803774
1813,Chorale Bel Canto,Small,Performing Arts,P.O. Box 451,Whittier,90608,Los Angeles,CA,33.979318,-118.03053
1816,Les Figues Press,Very Small,"Broadcasters, Producers, TV, Film & Digital Media",2776 S. La Salle Ave,Los Angeles,90018,Los Angeles,CA,34.03019564,-118.3052702
1817,Piano Spheres,Small,Performing Arts,1260 Rancheros Road,Pasadena,91103,Los Angeles,CA,34.16092032,-118.1769434
1820,Pasadena Arts Council,Large,Support & Advocacy,65 S. Grand Avenue,Pasadena,91105,Los Angeles,CA,34.14395489,-118.1619163
1826,Los Angeles Chamber Ballet,Very Small,Performing Arts,1222 S. Westgate Ave Suite 102,Los Angeles,90025,Los Angeles,CA,34.04693597,-118.4627102
1830,Ballet Collective,Very Small,Performing Arts,907 N. Edgemont St,Los Angeles,90029,Los Angeles,CA,34.08821143,-118.2961428
1841,Skirball Cultural Center,Very Large,Community,2701 N. Sepulveda Blvd.,Los Angeles,90049,Los Angeles,CA,34.12123344,-118.4805569
1844,La Danserie,Very Small,Performing Arts,9759 Mason Avenue,Chatsworth,91311,Los Angeles,CA,34.24769848,-118.5798958
1853,Lula Washington Contemporary Dance Foundation,Medium,Performing Arts,3773 S. Crenshaw Blvd,Los Angeles,90016,Los Angeles,CA,34.01769159,-118.3356089
1862,Claremont Community School of Music,Medium,Education,951 West Foothill Boulevard,Claremont,91711,Los Angeles,CA,34.1070849,-117.7339208
1863,Yiddishkayt Los Angeles,Small,Community,3780 Wilshire Blvd,Los Angeles,90010,Los Angeles,CA,34.06160511,-118.308613
1867,Long Beach Opera,Large,Performing Arts,507 Pacific Avenue,Long Beach,90802,Los Angeles,CA,33.77298625,-118.1938012
1869,Santa Monica Conservancy,Very Small,"Museums, Visual Arts, History",P.O. Box 653,Santa Monica,90406,Los Angeles,CA,34.018176,-118.497198
1880,"Actors’ Gang, The",Large,Performing Arts,9070 Venice Blvd.,Culver City,90232,Los Angeles,CA,34.02646499,-118.3929625
1887,CMA (Claremont Museum of Art),Small,"Museums, Visual Arts, History",536 West First Street,Claremont,91711,Los Angeles,CA,34.09447858,-117.7211874
1889,Los Angeles Jewish Symphony,Small,Performing Arts,17455 La Cuesta Lane,Encino,91316,Los Angeles,CA,34.15242218,-118.512835
1890,Grand Performances,Large,Performing Arts,350 South Grand Avenue,Los Angeles,90071,Los Angeles,CA,34.05166168,-118.2513869
1891,Japanese American National Museum,Large,"Museums, Visual Arts, History",369 East First Street,Los Angeles,90012,Los Angeles,CA,34.04973926,-118.2385632
1895,"Inside Out Community Arts, Inc.",Medium,Education,2210 Lincoln Blvd,Venice,90291,Los Angeles,CA,33.99532295,-118.4542516
1896,Parson's Nose Productions,Very Small,Performing Arts,1325 Monterey Road,South Pasadena,91030,Los Angeles,CA,34.1119407,-118.1539853
1903,California Art Club,Medium,"Museums, Visual Arts, History",75 S. Grand Ave.,Pasadena,91105,Los Angeles,CA,34.14383587,-118.1619395
1921,Levitt Pavilion - Greater Los Angeles & Pasadena,Medium,Performing Arts,87 N. Raymond Avenue,Pasadena,91103,Los Angeles,CA,34.14681358,-118.1489925
1923,Bethune Theatredanse,Small,Performing Arts,3342 Barham Blvd.,Los Angeles,90068,Los Angeles,CA,34.13184105,-118.3444102
1935,J.U.i.C.E. (Justice by Uniting in Creative Energy),Very Small,Community,2936 W 8th St,Los Angeles,90005,Los Angeles,CA,34.05728696,-118.2902069
1936,"Contra-Tiempo, Inc.",Small,Performing Arts,P.O. Box 360465,Los Angeles,90036,Los Angeles,CA,34.067699,-118.350907
1945,18th Street Arts Complex,Medium,Community,1639 18th Street,Santa Monica,90404,Los Angeles,CA,34.023524,-118.4774935
1953,Santa Monica Symphony Association,Small,Performing Arts,1821 Wilshire Blvd.,Santa Monica,90403,Los Angeles,CA,34.03009202,-118.4849059
1955,Homeland Cultural Center,Small,Community,1321 E. Anaheim Street,Long Beach,90813,Los Angeles,CA,33.78269378,-118.1747328
1964,Los Cancioneros Master Chorale,Very Small,Performing Arts,2742 Cabrillo Ave.,Torrance,90501,Los Angeles,CA,33.81984258,-118.315617
1973,Shakespeare Center,Large,Performing Arts,1238 W 1ST Street,Los Angeles,90026,Los Angeles,CA,34.06068152,-118.2572217
1975,"Benita Bike's DanceArt, Inc.",Very Small,Performing Arts,10211 Sunland Blvd.,Sunland,91040,Los Angeles,CA,34.26043711,-118.3371575
1976,Foundation for World Arts,Small,Performing Arts,12200 Lawler Street,Los Angeles,90066,Los Angeles,CA,34.01267776,-118.4374621
1987,"Performing Arts For Life And Education Foundation (PALEF), The",Small,Performing Arts,"971 East 43rd Street, Los Angeles, CA",Los Angeles,90011,Los Angeles,CA,34.006146,-118.257237
1988,Los Angeles Master Chorale Association,Large,Performing Arts,135 North Grand Avenue,Los Angeles,90012,Los Angeles,CA,34.05735983,-118.2481651
1989,Autry Museum of the American West ,Very Large,"Museums, Visual Arts, History",4700 Western Heritage Way,Los Angeles,90027,Los Angeles,CA,34.14748154,-118.2822389
1998,"Verdi Chorus, The",Very Small,Performing Arts,315 Montana Avenue - #411,Santa Monica,90403,Los Angeles,CA,34.02421794,-118.5051364
2005,"Deaf West Theatre Co., Inc.",Small,Performing Arts,5114 Lankersheim Blvd.,North Hollywood,91601,Los Angeles,CA,34.16342021,-118.373633
2006,Antaeus Company,Medium,Performing Arts,5114 Lankershim Blvd.,North Hollywood,91601,Los Angeles,CA,34.16342021,-118.373633
2012,"Santa Clarita Master Chorale, Inc.",Small,Performing Arts,PO Box 800459,Santa Clarita,91380,Los Angeles,CA,34.499933,-118.394976
2017,Crown City Theatre Company,Small,Performing Arts,5616 Radford Ave,Valley Village,91607,Los Angeles,CA,34.17240745,-118.3920442
2019,South Coast Dance Arts Alliance,Very Small,Performing Arts,1840 Snowden Ave.,Long Beach,90815,Los Angeles,CA,33.7897082,-118.1114377
2021,NewTown Pasadena Foundation,Very Small,Support & Advocacy,2259 Country Club Drive,Altadena,91001,Los Angeles,CA,34.18550094,-118.1226784
2023,Vox Femina Los Angeles,Small,Performing Arts,3341 Caroline Ave,Culver City,90232,Los Angeles,CA,34.02877977,-118.3827296
2025,Pasadena Dance Theatre,Medium,Performing Arts,1985 E Locust Street,Pasadena,91107,Los Angeles,CA,34.15082817,-118.1091389
2029,"Film Independent, Inc.",Large,"Broadcasters, Producers, TV, Film & Digital Media",9911 W. Pico Boulevard,Los Angeles,90035,Los Angeles,CA,34.05356981,-118.4042368
2030,Armory Center for the Arts,Large,"Museums, Visual Arts, History",145 Raymond Avenue,Pasadena,91103,Los Angeles,CA,34.14817409,-118.1490026
2031,Long Beach Symphony Orchestra,Large,Performing Arts,110 W. Ocean Blvd.,Long Beach,90802,Los Angeles,CA,33.76699206,-118.1924287
2033,Chamber Music Palisades,Very Small,Performing Arts,1043 Villa Grove Drive,Pacific Palisades,90272,Los Angeles,CA,34.04925898,-118.5136912
2037,Virginia Avenue Project,Small,Education,3000 Olympic Blvd.,Santa Monica,90404,Los Angeles,CA,34.02983902,-118.4645945
2039,P.S. ARTS,Large,Education,11965 Venice Blvd,Los Angeles,90066,Los Angeles,CA,34.00671375,-118.428978
2046,Hammer Museum of Art and Cultural Center  Inc.,Very Large,"Museums, Visual Arts, History",10899 Wilshire Blvd.,Los Angeles,90024,Los Angeles,CA,34.05921097,-118.4425967
2048,TeAda Productions,Small,Performing Arts,1651 18th Street,Santa Monica,90404,Los Angeles,CA,34.0233978,-118.4773505
2053,Hollywood Arts Council,Small,Support & Advocacy,6671 Sunset Boulevard,Los Angeles,90028,Los Angeles,CA,34.09876686,-118.3355832
2061,FilAm Arts,Small,Community,607 N. Vermont Ave.,Los Angeles,90004,Los Angeles,CA,34.08207361,-118.2920946
2062,"Museum of Jurassic Technology, The",Medium,"Museums, Visual Arts, History",9341 Venice Boulevard,Culver City,90232,Los Angeles,CA,34.02598493,-118.3946851
2066,PEN Center USA West,Large,"Broadcasters, Producers, TV, Film & Digital Media",400 Corporate Pointe,Culver City,90230,Los Angeles,CA,33.98854095,-118.3845466
2077,Angels Gate Cultural Center,Small,Community,3601 South Gaffey Street,San Pedro,90731,Los Angeles,CA,33.71138377,-118.2929352
2079,Theatre Of Hearts/Youth First,Small,Community,"672 S. La Fayette Park Place, Suite 47",Los Angeles,90057,Los Angeles,CA,34.06211958,-118.2826731
2080,Music Center (Performing Arts Center of LA County),Very Large,Performing Arts,135 N. Grand Avenue,Los Angeles,90012,Los Angeles,CA,34.05735983,-118.2481651
2088,"Blank Theatre Company, The",Small,Performing Arts,P.O. Box 38756,Los Angeles,90038,Los Angeles,CA,34.091104,-118.34303
2089,LACC (Los Angeles Childrens Chorus),Large,Performing Arts,585 E. Colorado Boulevard,Pasadena,91101,Los Angeles,CA,34.14649568,-118.1390489
2107,Pasadena Museum of History,Medium,"Museums, Visual Arts, History",470 West Walnut Street,Pasadena,91103,Los Angeles,CA,34.14964576,-118.1603281
2120,Helios Dance Theater,Very Small,Performing Arts,15411 Bestor Boulevard,Pacific Palisades,90272,Los Angeles,CA,34.05145002,-118.526494
2122,Venice Arts,Large,Education,610 California Ave,Venice,90291,Los Angeles,CA,33.99137537,-118.4654217
2127,"Museum of Contemporary Art, Los Angeles",Very Large,"Museums, Visual Arts, History",250 South Grand Avenue,Los Angeles,90012,Los Angeles,CA,34.05287111,-118.2508422
2128,Los Angeles Municipal Art Gallery Associates,Very Small,"Museums, Visual Arts, History",4800 Hollywood Boulevard,Los Angeles,90027,Los Angeles,CA,34.10168282,-118.294515
2141,LA Opera,Very Large,Performing Arts,135 North Grand Ave.,Los Angeles,90012,Los Angeles,CA,34.05735983,-118.2481651
2152,Dance Camera West,Very Small,Performing Arts,3400 San Marino St.,Los Angeles,90006,Los Angeles,CA,34.05407594,-118.3066979
2153,Shumei Arts Council of America,Very Small,Support & Advocacy,2430 E. Colorado Blvd.,Pasadena,91107,Los Angeles,CA,34.1456855,-118.1002896
2166,International City Theatre,Medium,Performing Arts,One World Trade Center,Long Beach,90832,Los Angeles,CA,33.76735087,-118.1994637
2168,artworxLA,Large,Education,1047 W. 24th St.,Los Angeles,90007,Los Angeles,CA,34.0339261,-118.2829668
2175,LA Freewaves,Small,"Broadcasters, Producers, TV, Film & Digital Media",6522 Hollywood Boulevard,Los Angeles,90028,Los Angeles,CA,34.10149885,-118.3318831
2178,Pasadena Summer Youth Chamber Orchestra,Very Small,Performing Arts,734 N. Wilson Ave,Pasadena,91104,Los Angeles,CA,34.15867946,-118.1277944
2194,Shakespeare by the Sea,Small,Performing Arts,777 Centre St,San Pedro,90731,Los Angeles,CA,33.73718394,-118.284051
2205,City of Los Angeles Department of Cultural Affairs,Very Large,Support & Advocacy,201 North Figueroa Street,Los Angeles,90012,Los Angeles,CA,34.05848919,-118.2514088
2208,Inside Out Productions,Small,"Museums, Visual Arts, History",4911 Overland Avenue,Culver City,90230,Los Angeles,CA,34.00927945,-118.3982659
2209,Los Angeles Philharmonic Association,Very Large,Performing Arts,151 South Grand Avenue,Los Angeles,90012,Los Angeles,CA,34.05513103,-118.249399
2212,Camerata Singers of Long Beach,Small,Performing Arts,P.O. Box 15073,Long Beach,90815,Los Angeles,CA,33.794234,-118.115561
2225,"reDiscover Center, Inc.",Small,Education,12958 W Washington Blvd,Los Angeles,90066,Los Angeles,CA,33.99465532,-118.4391768
2242,"Jazz Angels, The",Very Small,Performing Arts,34 Mayapple Way,Irvine,92612,Orange,CA,33.66052285,-117.8252929
2302,Robey Theatre Company,Small,Performing Arts,514 South Spring Street,Los Angeles,90013,Los Angeles,CA,34.04673304,-118.2497377
2348,Machine Project,Small,Education,1200 d north alvarado street,Los Angeles,90026,Los Angeles,CA,34.07808761,-118.2630653
2353,"SST Productions, Inc.",Very Small,Education,4444 Riverside Drive,Burbank,91505,Los Angeles,CA,34.1519072,-118.3485623
2370,Long Beach Community Band,Very Small,Performing Arts,P.O. Box 91503,Long Beach,90809,Los Angeles,CA,33.762376,-118.121919
2378,"Second City Council, The",Very Small,"Museums, Visual Arts, History",435 Alamitos Avenue,Long Beach,90802,Los Angeles,CA,33.77246996,-118.1813561
2391,Son of Semele Ensemble,Very Small,Performing Arts,3301 Beverly Boulevard,Los Angeles,90004,Los Angeles,CA,34.07322255,-118.2846486
2400,South Coast Chorale,Very Small,Performing Arts,P.O. Box 92524,Long Beach,90809,Los Angeles,CA,33.762376,-118.121919
2426,Friends of the Chinese American Museum,Small,"Museums, Visual Arts, History","125 Paseo de la Plaza, Suite 300",Los Angeles,90012,Los Angeles,CA,34.063679,-118.238854
2440,Glendale Arts,Large,Performing Arts,216 North Brand Ave,Glendale,91203,Los Angeles,CA,34.14879114,-118.2545646
2441,Red Hen Press,Medium,"Broadcasters, Producers, TV, Film & Digital Media",P.O. Box 3537,Granada Hills,91394,Los Angeles,CA,34.263508,-118.526054
2442,DUBLAB,Small,"Broadcasters, Producers, TV, Film & Digital Media",4519 Santa Monica Blvd.,Los Angeles,90029,Los Angeles,CA,34.09096094,-118.2871318
2456,Long Beach Chorale,Very Small,Performing Arts,P.O. Box 14377,Long Beach,90853,Los Angeles,CA,33.7604,-118.132702
2464,California Traditional Music Society,Small,Community,4401 Trancas Place,Tarzana,91356,Los Angeles,CA,34.15086571,-118.539844
2478,Long Beach Playhouse,Medium,Performing Arts,5021 East Anaheim Street,Long Beach,90804,Los Angeles,CA,33.78350774,-118.1351223
2480,Rangoli Foundation for Art & Culture,Small,Performing Arts,14748 Morrison Street,Sherman Oaks,91403,Los Angeles,CA,34.16005041,-118.4547315
2485,Internatiional Eye Los Angeles,Very Small,Support & Advocacy,"8703 La Tijera Blvd., Suite 208",Los Angeles,90045,Los Angeles,CA,33.9583424,-118.3932484
2488,Historical Society of Long Beach,Small,"Museums, Visual Arts, History",4260 Atlantic Avenue,Long Beach,90807,Los Angeles,CA,33.83368311,-118.184908
2490,Theatre West,Small,Performing Arts,3333 Cahuenga Blvd West,Los Angeles,90068,Los Angeles,CA,34.1307042,-118.3511017
2498,Pacific Serenades,Very Small,Performing Arts,Los Angeles Center Studios,Los Angeles,90017,Los Angeles,CA,34.053387,-118.265378
2502,Flights of Fantasy Story Theatre,Very Small,"Broadcasters, Producers, TV, Film & Digital Media",8048 Le Berthon St.,Sunland,91040,Los Angeles,CA,34.26781554,-118.3084102
2507,McGroarty Arts Center,Medium,Education,7570 McGroarty Terrace,Tujunga,91042,Los Angeles,CA,34.25056046,-118.2975966
2512,Culver City Symphony Orchestra,Small,Performing Arts,P O Box 4846,Culver City,90231,Los Angeles,CA,33.999494,-118.391303
2515,Palos Verdes Art Center,Large,Support & Advocacy,5504 W. Crestridge Rd.,Rancho Palos Verdes,90275,Los Angeles,CA,33.76659639,-118.3723768
2520,Social and Public Art Resource Center (SPARC),Medium,Community,685 Venice Blvd.,Venice,90291,Los Angeles,CA,33.99065745,-118.4593625
2525,PMCA (Pasadena Museum of California Art),Large,"Museums, Visual Arts, History",490 East Union Street,Pasadena,91101,Los Angeles,CA,34.14711395,-118.1400697
2544,Santa Monica Group Theatre aka Santa Monica Playhouse,Small,Performing Arts,1211 4th Street,Santa Monica,90401,Los Angeles,CA,34.01898878,-118.4976298
2550,Broad Stage,Large,Performing Arts,1900 Pico Boulevard,Santa Monica,90405,Los Angeles,CA,34.0190299,-118.4700044
2553,Khmer Arts,Small,Education,"375 Redondo Avenue, Suite 156",Long Beach,90814,Los Angeles,CA,33.77084809,-118.1527451
2554,Musical Theatre West,Large,Performing Arts,4350 E. 7th Street,Long Beach,90804,Los Angeles,CA,33.77523439,-118.1420702
2560,Independent Shakespeare Co.,Medium,Performing Arts,9800 D Topanga Canyon Blvd.,Chatsworth,91311,Los Angeles,CA,34.24757591,-118.6062699
2573,chamber orchestra of the south bay,Small,Performing Arts,PO BOX 2095,Palos Verdes Peninsula,90274,Los Angeles,CA,33.772826,-118.370775
2576,Shakespeare At Play,Small,Performing Arts,328 N. Brighton Avenue,Burbank,91506,Los Angeles,CA,34.16597355,-118.3304897
2577,Culture Shock LA,Very Small,Performing Arts,4029 Pacific Avenue #7,San Pedro,90731,Los Angeles,CA,33.70729174,-118.2882953
2579,IAMS (Institute of Art Music & Science),Small,Education,16415 clark ave,Bellflower,90706,Los Angeles,CA,33.88538221,-118.1340266
2581,Culver City Cultural Affairs Foundation,Very Small,Support & Advocacy,9770 Culver Blvd.,Culver City,90232,Los Angeles,CA,34.02168368,-118.3960076
2585,Live Arts Group,Small,Performing Arts,8235 Lincoln Terrace,West Hollywood,90069,Los Angeles,CA,34.097865,-118.370179
2587,University Art Museum CSULB,Medium,"Museums, Visual Arts, History",1250  Bellflower Blvd,Long Beach,90840,Los Angeles,CA,33.78368448,-118.1222441
2594,Celebration Theatre,Small,Performing Arts,7051 B Santa Monica Blvd,Los Angeles,90038,Los Angeles,CA,34.09079312,-118.3416163
2599,Pasadena Conservatory of Music,Large,Education,100 North Hill Avenue,Pasadena,91106,Los Angeles,CA,34.14890401,-118.1212749
2614,Alliance for California Traditional Arts (ACTA),Large,Support & Advocacy,1007 General Kennedy Avenue,San Francisco,94129,San Francisco,CA,37.7954,-122.463998
2632,Inner-City Arts,Large,Education,720 Kohler St.,Los Angeles,90021,Los Angeles,CA,34.03704434,-118.2428757
2640,Mariachi Festival,Very Small,Performing Arts,102 North Boyle Avenue,Los Angeles,90033,Los Angeles,CA,34.04782926,-118.219545
2643,Hollywood Master Chorale,Very Small,Performing Arts,P.O. Box 461135,Los Angeles,90046,Los Angeles,CA,34.105576,-118.366794
2647,Classical Theatre Lab,Very Small,Performing Arts,"7336 Santa Monica Blvd., #831",West Hollywood,90046,Los Angeles,CA,34.09064086,-118.3487811
2653,"Garage Theatre, The",Very Small,Performing Arts,251 East 7th Street,Long Beach,90813,Los Angeles,CA,33.77542818,-118.1902496
2654,California Heritage Museum,Small,"Museums, Visual Arts, History",2612 Main Street,Santa Monica,90405,Los Angeles,CA,34.00208671,-118.4837726
2656,"Guild Opera Company, Inc.",Very Small,Performing Arts,1636 N. Cahuenga Blvd.,Los Angeles,90028,Los Angeles,CA,34.10044934,-118.3294356
2662,Millard Sheets Center for the Arts at Fairplex,Small,"Museums, Visual Arts, History",1101 W. McKinley Ave.,Pomona,91768,Los Angeles,CA,34.08305586,-117.7646953
2667,Kidspace: A Participatory Museum,Large,"Museums, Visual Arts, History",480 North Arroyo Blvd.,Pasadena,91103,Los Angeles,CA,34.1526667,-118.1664659
2668,Aquarium of the Pacific,Very Large,"Museums, Visual Arts, History",100 Aquarium Way,Long Beach,90802,Los Angeles,CA,33.76322407,-118.1966969
2678,"Hmong Association of Long Beach, Inc.",Very Small,Community,P.O. Box 6478,Long Beach,90806,Los Angeles,CA,33.805737,-118.181738
2680,Dia de los Muertos - Main Street Canoga Park,Very Small,"Museums, Visual Arts, History",7248 Owensmouth Ave,Canoga Park,91303,Los Angeles,CA,34.20191433,-118.6014783
2682,LA Ballet,Large,Performing Arts,11755 Exposition Boulevard,Los Angeles,90064,Los Angeles,CA,34.03290647,-118.4488977
2684,Overtone Industries,Very Small,Performing Arts,6535 Wilshire Boulevard,Los Angeles,90048,Los Angeles,CA,34.06446662,-118.371063
2687,Southwest Chamber Music Society,Small,Performing Arts,2500 E. Colorado Boulevard,Pasadena,91107,Los Angeles,CA,34.14569224,-118.0983331
2689,2nd Saturday Art Walk Organization,Very Small,"Museums, Visual Arts, History",117 Linden Avenue,Long Beach,90802,Los Angeles,CA,33.76872977,-118.1864527
2698,Lineage Dance,Small,Performing Arts,556 South Fair Oaks Avenue,Pasadena,91105,Los Angeles,CA,34.13630252,-118.1502918
2710,Echo Park Film Center,Small,"Broadcasters, Producers, TV, Film & Digital Media",1200 N. Alvarado Street,Los Angeles,90026,Los Angeles,CA,34.07808761,-118.2630653
2713,"San Gabriel Valley Pride, Inc.",Very Small,Community,P.O. Box 630,Pasadena,91102,Los Angeles,CA,34.148314,-118.143097
2719,Ryman Arts,Large,Support & Advocacy,315 West Ninth Street,Los Angeles,90015,Los Angeles,CA,34.03310644,-118.5049314
2721,"Theatre @ Boston Court, The",Large,Performing Arts,70 N. Mentor,Pasadena,91106,Los Angeles,CA,34.14700374,-118.1304038
2727,Center for the Arts Eagle Rock,Medium,Support & Advocacy,2225 Colorado Blvd.,Los Angeles,90041,Los Angeles,CA,34.02793038,-118.4754066
2735,Theatricum Botanicum,Medium,Performing Arts,1419 N. Topanga Canyon Blvd.,Topanga,90290,Los Angeles,CA,34.11099455,-118.5921243
2748,light bringer project,Small,Community,99 So. Raymond Avenue,Pasadena,91105,Los Angeles,CA,34.14392602,-118.1493543
2755,Side Street Projects,Small,Education,PO Box 90432,Pasadena,91109,Los Angeles,CA,34.167069,-118.164718
2756,Bilingual Foundation of the Arts,Small,Performing Arts,421 N. Avenue 19,Los Angeles,90031,Los Angeles,CA,34.07745982,-118.22473
2765,"Avenue 50 Studio, Inc.",Small,Performing Arts,131 North Avenue 50,Los Angeles,90042,Los Angeles,CA,34.10596783,-118.2027637
2767,Festival of New American Musicals (FNAM),Very Small,Performing Arts,8896 Carson Street,Culver City,90232,Los Angeles,CA,34.02554822,-118.385528
2776,"Los Angeles Dream Shapers, The",Small,Performing Arts,3500-189 W. Manchester Blvd,Inglewood,90305,Los Angeles,CA,33.960447,-118.331386
2779,"Create Now, Inc.",Small,Education,2007 Wilshire Blvd.,Los Angeles,90057,Los Angeles,CA,34.05750372,-118.2747245
2780,Latino Theater Company,Large,Performing Arts,514 South Spring Street,Los Angeles,90013,Los Angeles,CA,34.04673304,-118.2497377
2785,Culver City Chamber Orchestra,Very Small,Performing Arts,P.O. Box 2504,Culver City,90231,Los Angeles,CA,33.999494,-118.391303
2792,INCA  the Peruvian Ensemble,Very Small,Performing Arts,2261 Kenilworth Avenue,Los Angeles,90039,Los Angeles,CA,34.10074242,-118.2675495
2795,ONE Archives Foundation,Small,"Museums, Visual Arts, History",909 W. Adams Blvd,Los Angeles,90007,Los Angeles,CA,34.03085237,-118.2818438
2796,"World Stage Performance Gallery, Inc., The",Very Small,Performing Arts,4344 Degnan Boulevard,Los Angeles,90008,Los Angeles,CA,34.00519392,-118.3313666
2798,"Cultural Heritage Foundation of Southern California, Inc",Small,"Museums, Visual Arts, History",3800 Homer Street,Los Angeles,90031,Los Angeles,CA,34.08776325,-118.2089556
2812,Cornerstone Theater Company Inc.,Large,Performing Arts,708 Traction Avenue,Los Angeles,90013,Los Angeles,CA,34.04529805,-118.2364217
2815,Black Dahlia Theatre,Very Small,Performing Arts,5453 West Pico Blvd.,Los Angeles,90019,Los Angeles,CA,34.04885446,-118.3570373
2818,Los Angeles County Museum of Natural History Foundation,Very Large,"Museums, Visual Arts, History",900 Exposition Boulevard,Los Angeles,90007,Los Angeles,CA,34.0177572,-118.2905041
2831,Will's Players,Small,Performing Arts,5504 Tyrone Avenue,Sherman Oaks,91401,Los Angeles,CA,34.17046165,-118.4439704
2842,KASA (Kodo Arts Sphere America),Small,Community,P.O. Box 64-2904,Los Angeles,90064,Los Angeles,CA,34.035989,-118.42262
2846,Francisco Martinez Dancetheatre,Very Small,Performing Arts,6723 Matilija Avenue,Van Nuys,91405,Los Angeles,CA,34.1928681,-118.433763
2865,Regina Klenjoski Dance Company,Very Small,Performing Arts,P.O. Box 7732,Long Beach,90807,Los Angeles,CA,33.827641,-118.179228
2871,Granada Hills Chamber of Commerce,Small,Support & Advocacy,17723 Chatsworth Street,Granada Hills,91344,Los Angeles,CA,34.26521376,-118.5206822
2875,We Tell Stories,Very Small,Performing Arts,5740 York Blvd.,Los Angeles,90042,Los Angeles,CA,34.11867624,-118.1931323
2892,Poor Dog Group,Very Small,Performing Arts,2485 Hunter Street,Los Angeles,90021,Los Angeles,CA,34.02778841,-118.2269871
2895,Lark Musical Society Inc.,Medium,Performing Arts,543 Arden Ave.,Glendale,91203,Los Angeles,CA,34.15833925,-118.2652346
2898,City Garage,Very Small,Performing Arts,1340 1/2 4th. St  (Alley),Santa Monica,90406,Los Angeles,CA,34.01712809,-118.4961369
2905,SFVYC (San Fernando Valley Youth Chorus),Very Small,Performing Arts,22700 Sherman Way,Canoga Park,91307,Los Angeles,CA,34.20020429,-118.6221091
2906,Body Weather Laboratory,Very Small,Performing Arts,636 Milwood Avenue,Venice,90291,Los Angeles,CA,33.99158554,-118.4639977
2915,Jazz Tap Ensemble,Very Small,Performing Arts,"1416 Westwood Blvd., Suite 207",Los Angeles,90024,Los Angeles,CA,34.05504195,-118.441116
2916,Theatre of NOTE,Small,Performing Arts,1517 N Cahuenga Blvd,Los Angeles,90028,Los Angeles,CA,34.09857269,-118.329755
2925,Harmony Project,Large,Performing Arts,817 Vine Suite 204,Los Angeles,90038,Los Angeles,CA,34.091104,-118.34303
2929,Ballet Folklorico del Pacifico,Very Small,Performing Arts,4363 Jasmine Avenue,Culver City,90232,Los Angeles,CA,34.012028,-118.3935508
2932,California Institute of the Arts,Very Large,Education,24700 McBean Parkway,Valencia,91355,Los Angeles,CA,34.39229167,-118.5666849
2957,MAK Center for Art and Architecture,Medium,"Museums, Visual Arts, History",835 N. Kings Road,West Hollywood,90069,Los Angeles,CA,34.08600852,-118.3717927
2959,Bootleg Theater,Small,Performing Arts,2220 Beverly Boulevard,Los Angeles,90057,Los Angeles,CA,34.06730749,-118.2719793
2962,Open Fist Theatre Company,Small,Performing Arts,6209 Santa Monica Blvd,Los Angeles,90038,Los Angeles,CA,34.09083364,-118.3246314
2968,Beach Cities Symphony Association,Very Small,Performing Arts,P.O. Box  248,Redondo Beach,90277,Los Angeles,CA,33.832658,-118.38015
2973,"EngAGE, Inc.",Large,Education,"240 E. Verdugo Avenue, Suite 100",Burbank,91502,Los Angeles,CA,34.17210759,-118.3120965
2978,Odyssey Theatre Foundation,Medium,Performing Arts,2055 S. Sepulveda Blvd Los Angeles Ca,Los Angeles,90025,Los Angeles,CA,34.04215399,-118.439702
2981,Monday Evening Concerts,Very Small,Performing Arts,3710 S. Robertson Blvd,Culver City,90232,Los Angeles,CA,34.02809045,-118.3901084
2991,Macha Theatre/Films,Small,Performing Arts,1107 N. Kings Road,West Hollywood,90069,Los Angeles,CA,34.09105291,-118.3731157
3011,Music Circle,Small,Performing Arts,625 S. Madison Avenue,Pasadena,91106,Los Angeles,CA,34.13501989,-118.1387039
3013,Los Angeles Art Association (LAAA or Gallery 825),Small,"Museums, Visual Arts, History",825 North La Cienega Boulevard,Los Angeles,90069,Los Angeles,CA,34.0860181,-118.3767992
3016,Donna Sternberg & Dancers,Very Small,Performing Arts,911 9th St. #206,Santa Monica,90403,Los Angeles,CA,34.02693941,-118.4980818
3019,Kwanzaa Heritage Foundation,Very Small,"Museums, Visual Arts, History",1260 1/2 w. 51ST ST.,Los Angeles,90037,Los Angeles,CA,33.99572372,-118.298089
3022,Ford Theatre Foundation,Large,Performing Arts,2580 Cahuenga Blvd. East,Los Angeles,90068,Los Angeles,CA,34.11731936,-118.3366802
3023,Automata Arts,Small,Performing Arts,3320 West Sunset Blvd,Los Angeles,90026,Los Angeles,CA,34.08665118,-118.2755152
3034,Santa Cecilia Opera and Orchestra Association,Small,Performing Arts,2759 West Broadway,Los Angeles,90041,Los Angeles,CA,34.14351114,-118.2252977
3038,Santa Clarita Performing Arts Center at College of the Canyons,Medium,Performing Arts,26455 Rockwell Canyon Road,Santa Clarita,91355,Los Angeles,CA,34.40583112,-118.5734388
3039,"Theatre Movement Bazaar, Inc",Small,Performing Arts,4189 Greenbush Ave.,Sherman Oaks,91423,Los Angeles,CA,34.14682965,-118.4261693
3046,West Coast Ensemble,Very Small,Performing Arts,c/o Jaffee & Associates,Van Nuys,91408,Los Angeles,CA,34.175689,-118.430158
3051,Polish-American Film Society,Small,"Broadcasters, Producers, TV, Film & Digital Media",7726 Ethel Avenue,North Hollywood,91605,Los Angeles,CA,34.21074032,-118.4166232
3058,Morgan-Wixson Theatre,Small,Performing Arts,2627 Pico Boulevard,Santa Monica,90405,Los Angeles,CA,34.02382179,-118.4619903
3060,Barnsdall Arts,Small,Education,4814 Hollywood Boulevard,Los Angeles,90027,Los Angeles,CA,34.10168212,-118.2947478
3068,Greenway Arts Alliance,Large,Support & Advocacy,544 N. Fairfax Avenue,Los Angeles,90036,Los Angeles,CA,34.08110719,-118.3613671
3076,Young Musicians Foundation,Large,Performing Arts,195 S. Beverly Drive,Beverly Hills,90212,Los Angeles,CA,34.06507439,-118.3990554
3081,Los Angeles County Arts Commission,Very Large,Support & Advocacy,"1055 Wilshire Blvd., Suite 800",Los Angeles,90017,Los Angeles,CA,34.05254689,-118.2627375
3082,LAWTF (Los Angeles Women's Theatre Festival),Very Small,Performing Arts,11411 Cumpston Street #204,North Hollywood,91601,Los Angeles,CA,34.16990965,-118.3795299
3088,"Road Theatre Company, The",Small,Performing Arts,5108 Lankershim Blvd.,North Hollywood,91601,Los Angeles,CA,34.16325053,-118.3732893
3102,"Art of Elysium, The",Large,Support & Advocacy,"3278 Wilshire Boulevard, Suite 1001",Los Angeles,90010,Los Angeles,CA,34.06140287,-118.2937929
3107,Red Nation Celebration,Very Small,Community,"9420 RESEDA BLVD, NORTHRIDGE CA",Northridge,91324,Los Angeles,CA,34.243279,-118.545849
3110,"American Youth Symphony, Inc.",Medium,Performing Arts,2365 Westwood Blvd,Los Angeles,90064,Los Angeles,CA,34.04085167,-118.4292414
3112,Highways Performance Space,Small,Performing Arts,1651 18th Street,Santa Monica,90404,Los Angeles,CA,34.0233978,-118.4773505
3116,Viver Brasil,Small,Performing Arts,2141 N. Gower Street,Los Angeles,90068,Los Angeles,CA,34.10978067,-118.3226705
3117,"Company of Angels, Inc.",Small,Performing Arts,P.O. Box 3480,Los Angeles,90078,Los Angeles,CA,34.099648,-118.328037
3120,Inland Pacific Ballet,Medium,Performing Arts,"5050 Arrow Highway, Room B",Montclair,91763,San Bernardino,CA,34.09246934,-117.6949839
3123,TA'YER,Very Small,Education,1416 N. Garfield Avenue,Pasadena,91104,Los Angeles,CA,34.17031923,-118.1437872
3124,Highland Park Chamber of Commerce,Very Small,Community,1270 NORTH AVENUE 50,Los Angeles,90042,Los Angeles,CA,34.12131982,-118.2068327
3128,"Unusual Suspects Theatre Company, The",Medium,Performing Arts,"10536 Culver Blvd., Suite B",Culver City,90232,Los Angeles,CA,34.01452914,-118.4014963
3129,Los Angeles Jazz Society,Small,Performing Arts,4425 Stewart Avenue,Los Angeles,90066,Los Angeles,CA,33.99196732,-118.4273547
3130,"Tom of Finland Foundation, Inc.",Small,"Museums, Visual Arts, History",1421 Laveta Terrace,Los Angeles,90026,Los Angeles,CA,34.07835001,-118.2547408
3131,Balkan Cultural Center / Los Angeles Greek Film festival,Small,"Broadcasters, Producers, TV, Film & Digital Media","13547 Ventura Blvd., #163",Sherman Oaks,91423,Los Angeles,CA,34.14789566,-118.4286322
3136,Los Angeles Doctors Symphony Orchestra,Very Small,Performing Arts,c/o Kenneth Alexander,Culver City,90232,Los Angeles,CA,34.014991,-118.394848
3149,Southern California Institute of Architecture,Very Large,Education,960 E. 3rd Street,Los Angeles,90013,Los Angeles,CA,34.04385497,-118.2328895
3150,Center for Cultural Innovation,Medium,Support & Advocacy,"244 S. San Pedro Street, Suite 401",Los Angeles,90012,Los Angeles,CA,34.04778224,-118.2417865
3155,American Film Institute,Very Large,"Broadcasters, Producers, TV, Film & Digital Media",2021 N. Western Avenue,Los Angeles,90027,Los Angeles,CA,34.10783451,-118.3101313
3158,MONA (Museum of Neon Art),Small,"Museums, Visual Arts, History",136 W. 4th Street,Los Angeles,90013,Los Angeles,CA,34.04852847,-118.2480009
3163,"Jazz Bakery Performance Space, The",Medium,Performing Arts,1836 Benedict Canyon Drive,Beverly Hills,90210,Los Angeles,CA,34.10436324,-118.4370619
3166,Angeles Chorale,Small,Performing Arts,"20929 Ventura Blvd, Suite 47-120",Woodland Hills,91364,Los Angeles,CA,34.16716286,-118.589424
3177,Canyon Theatre Guild,Medium,Performing Arts,24242 Main Street,Newhall,91321,Los Angeles,CA,34.37794738,-118.5268151
3181,Symphonic Jazz Orchestra,Small,Performing Arts,P.O. Box 1421,Culver City,90232,Los Angeles,CA,34.014991,-118.394848
3183,San Fernando Valley Symphony Orchestra,Very Small,Performing Arts,20210 Haynes St,Winnetka,91306,Los Angeles,CA,34.19073765,-118.5734632
3184,Outpost for Contemporary Art,Very Small,"Museums, Visual Arts, History",6375 N. Figueroa Street,Los Angeles,90042,Los Angeles,CA,34.11759071,-118.1836634
3190,"Los Angeles Chamber Singers, Inc.",Very Small,Performing Arts,2055 Kelton Avenue,Los Angeles,90025,Los Angeles,CA,34.04414552,-118.4350837
3191,LACLA or Cinemateca,Very Small,"Broadcasters, Producers, TV, Film & Digital Media",2652 Workman Street,Los Angeles,90031,Los Angeles,CA,34.07804427,-118.2140729
3192,South Robertson Neighborhood Council Inc.,Very Small,Support & Advocacy,1836 1/2 S. Robertson Blvd,Los Angeles,90035,Los Angeles,CA,34.0456993,-118.3862713
3196,Arts & Culture Management Program,Very Small,Support & Advocacy,1000 N. Alameda St.,Los Angeles,90012,Los Angeles,CA,34.05908146,-118.2367691
3200,Los Angeles Poverty Department,Small,Performing Arts,"1226 N Alvarado St, #5",Los Angeles,90026,Los Angeles,CA,34.07867457,-118.2624264
3201,AACMS Orchestra (Afro-American Chamber Music Society Orchestra),Very Small,Performing Arts,3500 West Manchester Boulevard,Inglewood,90305,Los Angeles,CA,33.95975133,-118.3325534
3203,"Plaza de la Raza, Inc.",Small,Education,3540 N. Mission Road,Los Angeles,90031,Los Angeles,CA,34.06730718,-118.2032477
3208,L.A. Theatre Works,Large,Performing Arts,681 Venice Blvd,Venice,90291,Los Angeles,CA,33.99058487,-118.4595068
3213,"New Education Options, Inc.",Very Small,Community,14431 Ventura Blvd. #312,Sherman Oaks,91423,Los Angeles,CA,34.1508848,-118.4479551
3215,Kenneth Walker Dance Project,Very Small,Performing Arts,PO Box 41,Lomita,90717,Los Angeles,CA,33.794899,-118.31645
3216,About Productions,Small,Performing Arts,145 North Raymond,Pasadena,91103,Los Angeles,CA,34.14817409,-118.1490026
3217,Israel Independence Day Festival,Small,Community,18155 Elkwood St.,Reseda,91335,Los Angeles,CA,34.21318669,-118.5292789
3221,International Family Film Festival (IFFF),Very Small,"Broadcasters, Producers, TV, Film & Digital Media","4531 West Empire Avenue,Hanger 3, Ste. 200",Burbank,91505,Los Angeles,CA,34.19440346,-118.3594045
3222,Gay Men's Chorus Los Angeles,Large,Performing Arts,1125 N. Mccadden Pl.,Los Angeles,90038,Los Angeles,CA,34.09189076,-118.3377782
3224,Piece by Piece,Small,Education,1815 South Soto Street,Los Angeles,90023,Los Angeles,CA,34.01563556,-118.2213549
3226,Hae Kyung Lee & Dancers,Very Small,Performing Arts,PO Box 32087,Los Angeles,90032,Los Angeles,CA,34.080616,-118.174263
3227,Diavolo Dance Theater,Large,Performing Arts,616 Moulton Ave,Los Angeles,90031,Los Angeles,CA,34.06569713,-118.2189607
3228,Dance Resource Center of Greater Los Angeles,Very Small,Performing Arts,PO Box 41092,Los Angeles,90042,Los Angeles,CA,34.118577,-118.189925
3232,Southern California Library for Social Studies and Research,Small,"Museums, Visual Arts, History",6120 S. Vermont Avenue,Los Angeles,90044,Los Angeles,CA,33.9844992,-118.2913901
3252,SASSAS (Society for the Activation of Social Space through Art and Sound),Very Small,Performing Arts,P.O. Box 411453,Los Angeles,90041,Los Angeles,CA,34.137442,-118.206258
3258,Imaginaction Theatre Inc.,Very Small,Performing Arts,"788 East Sierra Madre Blvd, Sierra Madre CA",Sierra Madre,91024,Los Angeles,CA,34.16186528,-118.038818
3263,University Campus Choir,Very Small,Performing Arts,1651 Amherst Av,Los Angeles,90025,Los Angeles,CA,34.03685649,-118.4611016
3268,LA Commons,Small,Community,4343 Leimert Boulevard,Los Angeles,90008,Los Angeles,CA,34.00496264,-118.3301119
3277,Geffen Playhouse,Very Large,Performing Arts,10886 Le Conte Avenue,Los Angeles,90024,Los Angeles,CA,34.06359026,-118.4449041
3287,501 (see three) ARTS,Very Small,Performing Arts,11405 Biona Drive,Los Angeles,90066,Los Angeles,CA,34.01134185,-118.422297
3290,Pacific Ballet Dance Theatre,Very Small,Performing Arts,237 East Palm Avenue,Burbank,91502,Los Angeles,CA,34.18281721,-118.3103346
3297,Peninsula Symphony Association,Very Small,Performing Arts,608 Silver Spur Road,Palos Verdes Peninsula,90274,Los Angeles,CA,33.77210401,-118.3711255
3302,CBLA,Very Small,Performing Arts,3470 Olympiad Drive,Los Angeles,90043,Los Angeles,CA,34.00207718,-118.3333422
3311,Ark Theatre Company,Very Small,Performing Arts,1647 S. La Cienega Boulevard,Los Angeles,90035,Los Angeles,CA,34.04793352,-118.3762228
3313,Heidi Duckler Dance Theatre,Small,Performing Arts,2934 1/2 Beverly Glen Circle #25,Los Angeles,90077,Los Angeles,CA,34.12727046,-118.4445049
3314,"Great Leap, Inc.",Very Small,Community,1145 Wilshire Blvd.,Los Angeles,90017,Los Angeles,CA,34.05271737,-118.2639862
3318,Rogue Artists Ensemble,Very Small,Performing Arts,3352 California Ave,Signal Hill,90755,Los Angeles,CA,33.8180677,-118.180364
3321,Street Poets Inc.,Medium,"Broadcasters, Producers, TV, Film & Digital Media",2116 Arlington Avenue,Los Angeles,90018,Los Angeles,CA,34.03785057,-118.3175992
3322,San Pedro City Ballet,Small,Performing Arts,1231  Pacific Ave,San Pedro,90731,Los Angeles,CA,33.73261489,-118.2882278
3324,LA Stage Alliance,Medium,Support & Advocacy,644 S. Figueroa Street,Los Angeles,90017,Los Angeles,CA,34.04958929,-118.2591684
3326,"Ghost Road Company, The",Very Small,Performing Arts,P.O. Box 2323,Culver City,90230,Los Angeles,CA,34.001758,-118.394799
3331,Friends of CACLA,Very Small,Education,6230 Wilshire Blvd.,Los Angeles,90048,Los Angeles,CA,34.06316891,-118.3639671
3332,"Pan African Film Festival, The",Small,"Broadcasters, Producers, TV, Film & Digital Media","3775 Santa Rosalia Dr, Los Angeles, CA",Los Angeles,90008,Los Angeles,CA,34.0096299,-118.3391249
3338,"Definiens Project, The",Very Small,Performing Arts,3500 Overland Ave #110-21,Los Angeles,90034,Los Angeles,CA,34.0248008,-118.4115487
3341,LACDC (L.A. Contemporary Dance Company),Small,Performing Arts,618 Moulton,Los Angeles,90031,Los Angeles,CA,34.06567016,-118.2189738
3343,LA Artcore Center,Small,Education,120 Judge John Aiso Street,Los Angeles,90012,Los Angeles,CA,34.05052611,-118.2406327
3349,"Friends of Villa Aurora, Inc.",Medium,Support & Advocacy,520 Paseo Miramar,Pacific Palisades,90272,Los Angeles,CA,34.04611612,-118.5557079
3350,Burbank Chorale,Very Small,Performing Arts,PO Box 501,Burbank,91503,Los Angeles,CA,34.180668,-118.307534
3355,"Tia Chucha's Centro Cultural, Inc.",Small,Community,10258 Foothill Blvd.,Sylmar,91342,Los Angeles,CA,34.27299575,-118.3531969
3356,Rhapsody In Taps Incorporated,Very Small,Performing Arts,4812 Matney Avenue,Long Beach,90807,Los Angeles,CA,33.84505357,-118.1742158
3361,Interact Theatre Company,Very Small,Performing Arts,P.O. Box 349,North Hollywood,91603,Los Angeles,CA,34.172067,-118.37692
3368,Beverly Hills International Music Festival,Very Small,Performing Arts,910 S. Bedford Street,Los Angeles,90035,Los Angeles,CA,34.06052879,-118.3800123
3371,"Young Storytellers Foundation, The",Small,Education,143 N. Larchmont Blvd.,Los Angeles,90004,Los Angeles,CA,34.0742023,-118.3239864
3378,"Da Camera Society of Mount St. Mary's College, The",Medium,Education,10 Chester Place,Los Angeles,90007,Los Angeles,CA,34.03064271,-118.2775045
3379,Imagination Workshop,Small,Community,c/o UCLA Semel Institute,Los Angeles,90024,Los Angeles,CA,34.060189,-118.4364
3384,VCC (Valley Cultural Center),Large,Performing Arts,"21550 Oxnard Street,",Woodland Hills,91364,Los Angeles,CA,34.153026,-118.602986
3394,Los Angeles Bach Festival,Very Small,Performing Arts,540 So. Commonwealth Ave,Los Angeles,90020,Los Angeles,CA,34.06458882,-118.2855737
3397,Outfest,Large,"Broadcasters, Producers, TV, Film & Digital Media",3470 Wilshire Boulevard,Los Angeles,90010,Los Angeles,CA,34.06165676,-118.2997058
3399,California African American Museum,Medium,Community,600 State Drive,Los Angeles,90037,Los Angeles,CA,34.01642603,-118.2838893
3402,Latino Arts Network,Very Small,Community,"1443 E. Washington Blvd., #224",Pasadena,91104,Los Angeles,CA,34.16915856,-118.1205941
3408,Invertigo Dance Theatre,Small,Performing Arts,"8383 Wilshire Blvd, Suite 649",Beverly Hills,90211,Los Angeles,CA,34.06471583,-118.3738794
3410,JC Culture Foundation,Very Small,Community,13021 E. Andy Street,Cerritos,90703,Los Angeles,CA,33.86212947,-118.0541841
3415,Latina Dance Project,Very Small,Performing Arts,2159 Lyric Ave.,Los Angeles,90027,Los Angeles,CA,34.10034474,-118.2742757
3422,"Syzygy Theatre Group, The",Very Small,Performing Arts,1125 E. Broadway,Glendale,91205,Los Angeles,CA,34.14634182,-118.2409332
3434,Circus Theatricals,Small,Performing Arts,4220 Motor Avenue,Culver City,90232,Los Angeles,CA,34.01442559,-118.3976538
3454,Lambda Literary Foundation,Small,"Broadcasters, Producers, TV, Film & Digital Media","5482 Wilshire Blvd, #1595",Los Angeles,90036,Los Angeles,CA,34.06215712,-118.3478839
3462,Santa Monica History Museum,Small,"Museums, Visual Arts, History",1350 Seventh Street,Santa Monica,90401,Los Angeles,CA,34.01930146,-118.4931407
3468,Towne Singers Inc.,Very Small,Performing Arts,PO Box 156,La Canada Flintridge,91012,Los Angeles,CA,34.203774,-118.191187
3469,Casa 0101,Small,Performing Arts,2009 E. 1st St,Los Angeles,90033,Los Angeles,CA,34.04548655,-118.2148433
3482,"GRAMMY Museum Foundation, The",Very Large,"Museums, Visual Arts, History","800 West Olympic Blvd., Suite 245A",Los Angeles,90015,Los Angeles,CA,34.038557,-118.268695
3488,"Top Hat Dancers, Incorporated",Very Small,Performing Arts,6650 Franklin Ave. Suite 306,Los Angeles,90028,Los Angeles,CA,34.10509875,-118.3347737
3515,Culver City Public Theatre,Very Small,Performing Arts,3812 Main Street,Culver City,90232,Los Angeles,CA,34.02524718,-118.394525
3558,MTG (Musical Theatre Guild),Very Small,Performing Arts,12424 Wilshire Blvd.,Los Angeles,90025,Los Angeles,CA,34.04128334,-118.4703391
3574,Rio Hondo Symphony Association,Small,Performing Arts,P. O. Box 495,Whittier,90608,Los Angeles,CA,33.979318,-118.03053
3596,ETC-Ensemble Theatre Company,Very Small,Performing Arts,10374 Cheviot Drive,Los Angeles,90064,Los Angeles,CA,34.03817269,-118.4107035
3604,Mercado La Paloma,Very Small,Community,3655 South Grand Ave,Los Angeles,90007,Los Angeles,CA,34.01743907,-118.278295
3607,Armenian Dramatic Arts Alliance,Very Small,Support & Advocacy,"4500 Laurel Canyon Blvd., #305",Valley Village,91607,Los Angeles,CA,34.15274151,-118.3961426
3613,826LA,Large,Education,685 Venice Blvd.,"Los Angeles, CA",90291,Los Angeles,CA,33.99065745,-118.4593625
3614,"Claremont Chorale, Inc.",Very Small,Performing Arts,PO Box 489,Claremont,91711,Los Angeles,CA,34.113043,-117.717351
3620,Pasadena Symphony and POPS,Large,Performing Arts,"117 E. Colorado Blvd., Suite 200",Pasadena,91105,Los Angeles,CA,34.14604284,-118.1529977
3623,Cantori Domino,Very Small,Performing Arts,23855 Sarda Road,Valencia,91355,Los Angeles,CA,34.38968604,-118.5525207
3631,Towne Street Theatre,Very Small,Performing Arts,4101 S. Budlong Avenue,Los Angeles,90037,Los Angeles,CA,34.00904227,-118.2959972
3632,Santa Clarita Ballet,Small,Performing Arts,26798 Oak Avenue,Canyon Country,91351,Los Angeles,CA,34.42343366,-118.5003966
3635,Ruskin Group Theatre,Small,Performing Arts,3000 Airport Ave,Santa Monica,90405,Los Angeles,CA,34.00994369,-118.4559989
3639,ESCAPE Theatre,Small,Performing Arts,28442 Alder Peak Avenue,Canyon Country,91387,Los Angeles,CA,34.42814364,-118.4320114
3654,Pacific Resident Theatre Ensemble,Small,Performing Arts,703 Venice Boulevard,Venice,90291,Los Angeles,CA,33.99092647,-118.4588279
3656,Los Angeles Filmforum,Small,"Broadcasters, Producers, TV, Film & Digital Media","143 N. Commonwealth Ave., #3",Los Angeles,90004,Los Angeles,CA,34.07478725,-118.2859527
3664,Arts for LA,Small,Support & Advocacy,PO Box 71574,Los Angeles,90071,Los Angeles,CA,34.053598,-118.255851
3671,Friends of Arts Education at the Cerritos Center for the Perfoming Arts,Medium,Performing Arts,12700 Center Court Drive,Cerritos,90703,Los Angeles,CA,33.86783702,-118.0612358
3674,Bluepalm: Art Culture Education (ACE),Small,Performing Arts,3418 Winslow Dr.,Los Angeles,90026,Los Angeles,CA,34.08657622,-118.2771344
3687,Hernandez Mariachi Heritage Society,Small,"Museums, Visual Arts, History",1648 Tyler Avenue,South El Monte,91733,Los Angeles,CA,34.04751057,-118.0418058
3693,NetMAA (Network of Myanmar (Burmese) American Association),Very Small,Community,"2168 S. Atlantic Blvd., Suite 230",Monterey Park,91754,Los Angeles,CA,34.03861394,-118.1444239
3696,"Victory Theatre Center, The",Small,Performing Arts,"3326 West Victory Blvd., Burbank",Burbank,91505,Los Angeles,CA,34.1846128,-118.347224
3704,Showtime-Katusha,Very Small,Performing Arts,8037  Limerick Ave.,Winnetka,91306,Los Angeles,CA,34.21668335,-118.5829837
3713,"Spirit Series, Inc.",Medium,"Broadcasters, Producers, TV, Film & Digital Media","605 San Vicente Blvd., Suite 310",Santa Monica,90402,Los Angeles,CA,34.03114696,-118.5087991
3715,Japanese American Cultural and Community Center,Large,Community,244 South San Pedro Street,Los Angeles,90012,Los Angeles,CA,34.04778224,-118.2417865
3716,CDI (California Dance Institute),Small,Education,P.O. Box 3027,Venice,90294,Los Angeles,CA,33.986206,-118.468275
3721,LACE (Los Angeles Contemporary Exhibitions),Small,"Museums, Visual Arts, History",6522 Hollywood Boulevard,Los Angeles,90028,Los Angeles,CA,34.10149885,-118.3318831
3722,"Stepping Stone Players, The",Very Small,Performing Arts,"1146 N. Central Avenue, #300",Glendale,91202,Los Angeles,CA,34.16248878,-118.256781
3723,South Bay Ballet,Small,Performing Arts,1261 Sartori Avenue,Torrance,90501,Los Angeles,CA,33.83539518,-118.3165579
3728,West Coast Singers,Very Small,Performing Arts,P.O. Box 46825,Los Angeles,90046,Los Angeles,CA,34.105576,-118.366794
3734,Jacaranda Music,Small,Performing Arts,1626 N. Benton Way,Los Angeles,90026,Los Angeles,CA,34.08701752,-118.265897
3737,"Wende Museum of the Cold War, Inc., The",Large,"Museums, Visual Arts, History","5741 Buckingham Parkway, Suite E",Culver City,90230,Los Angeles,CA,33.99069723,-118.3820911
3738,"American Composers Forum of Los Angeles, Inc",Very Small,Support & Advocacy,P.O. Box 211,Granada Hills,91344,Los Angeles,CA,34.279812,-118.500354
3740,Whittier Community Theatre,Very Small,Performing Arts,PO Box 601,Whittier,90608,Los Angeles,CA,33.979318,-118.03053
3757,Elephant Theatre Company,Very Small,Performing Arts,6322 Santa Monica Blvd.,Los Angeles,90038,Los Angeles,CA,34.09064693,-118.3271322
3763,M&A (Materials & Applications),Small,"Museums, Visual Arts, History",1619 Silver Lake Blvd.,Los Angeles,90026,Los Angeles,CA,34.08860497,-118.2693272
3776,Beyond Baroque Literary / Arts Center,Small,"Broadcasters, Producers, TV, Film & Digital Media",681 Venice Blvd,Venice,90291,Los Angeles,CA,33.99058487,-118.4595068
3777,iPalpiti,Small,Education,1900 Avenue of the Stars,Los Angeles,90067,Los Angeles,CA,34.05998113,-118.4169847
3821,Velaslavasay Panorama,Very Small,"Museums, Visual Arts, History",1122 West 24th Street,Los Angeles,90007,Los Angeles,CA,33.72274437,-118.3017995
3826,SEEFest South East European Film Festival - Los Angeles,Small,"Broadcasters, Producers, TV, Film & Digital Media",1530 N. Detroit Street,Los Angeles,90046,Los Angeles,CA,34.0985312,-118.3454747
3827,Arts Council for Long Beach,Medium,Support & Advocacy,"110 Pine Ave, Suite 1100",Long Beach,90802,Los Angeles,CA,33.76829664,-118.1920076
3833,"Gabriella Foundation, The",Large,Education,631 South Commonwealth Avenue,Los Angeles,90005,Los Angeles,CA,34.06298879,-118.2857377
3837,Ebony Repertory Theatre,Medium,Performing Arts,4718 W. Washington Blvd,Los Angeles,90016,Los Angeles,CA,34.03973946,-118.3419687
3848,California Contemporary Ballet,Very Small,Performing Arts,4490 Cornishon Avenue,La Canada Flintridge,91011,Los Angeles,CA,34.20575037,-118.2035912
3854,"Inglewood Cultural Arts, Inc.",Very Small,"Museums, Visual Arts, History","2722 W. 77th Street, Inglewood",Inglewood,90305,Los Angeles,CA,33.96970766,-118.3239475
3858,Ensemble Studio Theatre- The LA Project,Small,Education,137 North Larchmont Boulevard #134,Los Angeles,90004,Los Angeles,CA,34.0719472,-118.3240026
3859,Musica Angelica,Small,Performing Arts,"1223 Wilshire Blvd, #287",Santa Monica,90403,Los Angeles,CA,34.02541459,-118.4906785
3867,WVTC (Watts Village Theater Company),Small,Performing Arts,1827 E. 103rd Street,Los Angeles,90002,Los Angeles,CA,33.94325775,-118.2403042
3869,Wesley Youth Orchestra,Small,Performing Arts,4260 Via Arbolada,Los Angeles,90042,Los Angeles,CA,34.09738396,-118.1873733
3873,"Self-Help Graphics & Art, Inc.",Small,"Museums, Visual Arts, History",3802 Cesar E. Chavez Ave,Los Angeles,90063,Los Angeles,CA,34.04042768,-118.1845693
3881,Theatre Banshee,Very Small,Performing Arts,3435 W. Magnolia Blvd.,Burbank,91505,Los Angeles,CA,34.16884965,-118.3443184
3882,Get Lit,Medium,Education,142 N. Hayworth Avenue,Los Angeles,90048,Los Angeles,CA,34.07292625,-118.3622653
3885,Brockus Project Dance Company,Very Small,Performing Arts,618 B Moulton Ave,Los Angeles,90031,Los Angeles,CA,34.06567016,-118.2189738
3902,"Baseball Reliquary, Inc.",Very Small,"Museums, Visual Arts, History",P.O. Box 1850,Monrovia,91017,Los Angeles,CA,34.131442,-117.987304
3909,Brimmer St. Theatre Co.,Very Small,Performing Arts,1336 N McCadden Pl,Los Angeles,90028,Los Angeles,CA,34.09503829,-118.3373806
3924,los angeles printmaking society,Very Small,Support & Advocacy,9626 Monte Mar Drive,Los Angeles,90035,Los Angeles,CA,34.04921253,-118.3976253
3946,"Downey Symphonic Society, Inc.",Small,Performing Arts,P.O. Box 763,Downey,90241,Los Angeles,CA,33.940169,-118.129391
3994,City of San Fernando Mariachi Master Apprentice Program,Small,Performing Arts,117 Macneil St.,San Fernando,91340,Los Angeles,CA,34.28373397,-118.4390987
3995,LACER,Large,Education,"1718 North Cherokee Avenue, Suite A",Hollywood,90028,Los Angeles,CA,34.10231029,-118.3346628
4006,"Zhena Folk Chorus, The",Very Small,Performing Arts,1115 W. 37th Street,San Pedro,90731,Los Angeles,CA,33.71351861,-118.3039933
4039,LATA (Los Angeles Theatre Academy),Small,Education,1544 N Boylston St,Los Angeles,90012,Los Angeles,CA,34.0764538,-118.2453979
4066,Precision Dance Company,Very Small,Performing Arts,19709 Wadley Ave,Carson,90745,Los Angeles,CA,33.8533177,-118.26079
4098,California Alliance for Arts Education,Medium,Education,495 E. Colorado Blvd.,Pasadena,91101,Los Angeles,CA,34.14593633,-118.1399711
4193,Free Arts,Medium,Community,12095 W. Washington Blvd.,Los Angeles,90066,Los Angeles,CA,33.99752781,-118.4240877
4201,ETM-LA  Inc. (Education Through Music-Los Angeles),Medium,Education,2501 W. Burbank Boulevard,Burbank,91505,Los Angeles,CA,34.17889933,-118.3386381
4205,Craft and Folk Art Museum,Medium,"Museums, Visual Arts, History",5814 Wilshire Boulevard,Los Angeles,90036,Los Angeles,CA,34.06217983,-118.3555783
4306,CA LGBT Arts Alliance,Very Small,Support & Advocacy,934 Brannan Street,Los Angeles,90029,Los Angeles,CA,34.090213,-118.293835
4323,Trade&Row Corp.,Very Small,Community,PO Box 531249,Los Angeles,90053,Los Angeles,CA,34.055647,-118.240465
4363,"Ginga Arts, Inc.",Very Small,Performing Arts,"2901 Ocean Park Boulevard, Suite 103",Santa Monica,90405,Los Angeles,CA,34.02002904,-118.4546989
4443,Carpenter Performing Arts Center,Large,Performing Arts,6200 Atherton Street,Long Beach,90815,Los Angeles,CA,33.78864044,-118.1155677
4455,St Matthew's Music Guild,Small,Performing Arts,1031 Bienveneda Avenue,Pacific Palisades,90272,Los Angeles,CA,34.05394609,-118.5422197
4500,A Window Between Worlds,Large,"Museums, Visual Arts, History",710 4th Ave #5,Venice,90291,Los Angeles,CA,33.99504702,-118.4724013
4516,"Echo Theater Company, The",Small,Performing Arts,12400 Ventura Blvd.,Studio City,91604,Los Angeles,CA,34.14258886,-118.4031573
4521,Rupak,Very Small,Education,21214 Figurea Street,Carson,90745,Los Angeles,CA,33.8364556,-118.2853596
4549,Razorcake/Gorsky Press Inc,Small,Community,P.O. Box 42129,Los Angeles,90042,Los Angeles,CA,34.118577,-118.189925
4611,Art Share Los Angeles,Medium,Community,801 East 4th Place,Los Angeles,90013,Los Angeles,CA,34.04460566,-118.2366462
4667,Pasadena Society of Artists,Very Small,Support & Advocacy,P. O. Box 90074,Pasadena,91109,Los Angeles,CA,34.167069,-118.164718
4728,Southland Sings,Small,Performing Arts,535 South Forestdale Ave. Suite 100,Glendora,91741,Los Angeles,CA,34.12942985,-117.8766834
4963,Pacoima Chamber of Commerce Events,Very Small,Support & Advocacy,12502 Van Nuys Blvd.,Pacoima,91331,Los Angeles,CA,34.27774313,-118.4051076
4981,Grand Vision Foundation,Medium,Support & Advocacy,434 W. 6th Street,San Pedro,90731,Los Angeles,CA,33.7388416,-118.2864664
5026,TAIKOPROJECT,Small,Performing Arts,505 E. 3rd St.,Los Angeles,90013,Los Angeles,CA,34.04642524,-118.240135
5157,"Harry Bridges Project, The",Very Small,"Broadcasters, Producers, TV, Film & Digital Media",3704 Kelton Avenue,Los Angeles,90034,Los Angeles,CA,34.01805248,-118.4130411
5193,needtheater,Very Small,Performing Arts,454 S. Crescent Dr.,Beverly Hills,90212,Los Angeles,CA,34.05756576,-118.395634
5257,Center for Land Use Interpretation,Small,"Museums, Visual Arts, History",9331 Venice Blvd.,Los Angeles,90232,Los Angeles,CA,34.02603664,-118.3945941
5289,LatinArt.com,Very Small,"Museums, Visual Arts, History",532 N. Rossmore Ave #404,Los Angeles,90004,Los Angeles,CA,34.07981228,-118.3268204
5333,Hollywood Fringe Festival,Small,Performing Arts,6133 Fountain Ave.,Los Angeles,90028,Los Angeles,CA,34.09464311,-118.3234848
5348,Fountain Theatre,Medium,Performing Arts,5060 Fountain Avenue,Los Angeles,90029,Los Angeles,CA,34.09516234,-118.2996526
5499,"Wordsville, Inc.",Very Small,Education,1705 North Commonwealth avenue,Los Angeles,90027,Los Angeles,CA,34.101881,-118.2853104
5510,Masters of Harmony,Small,Performing Arts,11740 E. Telegraph Rd.,Santa Fe Springs,90670,Los Angeles,CA,33.94616994,-118.0836039
5517,"wulf., the",Very Small,Performing Arts,1026 South Santa Fe Avenue #203,Los Angeles,90021,Los Angeles,CA,34.03131545,-118.2298924
5534,Kollaboration,Small,Performing Arts,"1100 S. Flower Street, Suite 3160",Los Angeles,90015,Los Angeles,CA,34.0425136,-118.2640181
5565,"Palisades Americanism Parade Association, Inc.",Small,Community,P.O. Box 1776,Pacific Palisades,90272,Los Angeles,CA,34.053275,-118.534568
5570,International Documentary Association (IDA),Large,"Broadcasters, Producers, TV, Film & Digital Media",1201 West 5th Street,Los Angeles,90017,Los Angeles,CA,34.04191775,-118.2359002
5578,"Lummis Day Community Foundation, Inc,",Very Small,Community,1109 Oneonta Drive,Los Angeles,90065,Los Angeles,CA,34.11637707,-118.2161306
5603,Moving Arts,Very Small,Performing Arts,1822 Hyperion Ave,Los Angeles,90027,Los Angeles,CA,34.09628944,-118.2761035
5616,FUSION Performing Dance Academy,Very Small,Education,2845 West Blvd.,Los Angeles,90016,Los Angeles,CA,34.0303577,-118.3417826
5619,WriteGirl,Small,"Broadcasters, Producers, TV, Film & Digital Media",411 South Main Steet,Los Angeles,90013,Los Angeles,CA,34.046676,-118.241961
5622,An Claidheamh Soluis/The Celtic Arts Center,Very Small,Community,5062 Lankershim Blvd.,North Hollywood,91601,Los Angeles,CA,34.162482,-118.3730656
5627,KPCC,Very Large,"Broadcasters, Producers, TV, Film & Digital Media",261 South Figueroa Street,Los Angeles,90012,Los Angeles,CA,34.05573817,-118.2540122
5629,A Noise Within,Large,Performing Arts,234 S. Brand Blvd.,Glendale,91204,Los Angeles,CA,34.14385704,-118.2550412
5635,Los Angeles Forum for Architecture and Urban Design,Very Small,"Museums, Visual Arts, History",P.O. Box 291774,Los Angeles,90029,Los Angeles,CA,34.090213,-118.293835
5646,"Colburn School, The",Very Large,Education,200 South Grand Avenue,Los Angeles,90012,Los Angeles,CA,34.05375008,-118.2494135
5665,"Network of Ensemble Theaters, Inc.",Small,Support & Advocacy,1709 N Avenue 56,Los Angeles,90042,Los Angeles,CA,34.12570161,-118.1965587
5691,Otis College of Art and Design,Very Large,Education,9045 Lincoln Blvd.,Los Angeles,90045,Los Angeles,CA,33.95637303,-118.4170654
5697,"Arroyo Arts Collective, The",Very Small,Support & Advocacy,135 N Ave 50,Los Angeles,90042,Los Angeles,CA,34.10598026,-118.2027725
5711,KCET,Very Large,"Broadcasters, Producers, TV, Film & Digital Media",4401 Sunset Boulevard,Los Angeles,90027,Los Angeles,CA,34.09639721,-118.2846481
5730,"WCB Arts Foundation, Inc.",Very Small,Performing Arts,2032 6th St.,Santa Monica,90405,Los Angeles,CA,34.00920525,-118.484284
5751,Gabrielino/Tongva Springs Foundation,Small,"Museums, Visual Arts, History",P.O. Box 642043,Los Angeles,90064,Los Angeles,CA,34.035989,-118.42262
5752,Not Man Apart,Very Small,Performing Arts,PO Box 241193,Los Angeles,90024,Los Angeles,CA,34.060189,-118.4364
5761,Grandeza Mexicana Folk Ballet Company,Small,Performing Arts,12717 S. Budlong Avenue,Los Angeles,90044,Los Angeles,CA,33.91673803,-118.29655
5783,Palos Verdes Performing Arts,Large,Performing Arts,27570 Crossfield Drive,Palos Verdes Peninsula,90274,Los Angeles,CA,33.77229201,-118.3757382
5812,"Celestial Opera Company, The",Very Small,Performing Arts,1716 1/2 Bank Street,South Pasadena,91030,Los Angeles,CA,34.11030152,-118.1477041
5848,Blue13 Dance Company,Very Small,Performing Arts,2633 Lincoln Blvd.,Santa Monica,90405,Los Angeles,CA,34.00635341,-118.4753919
5849,CRE Outreach,Small,Education,11777 San Vicente Blvd.,Los Angeles,90049,Los Angeles,CA,34.05348434,-118.4683646
5850,"No Limits Theater Group, Inc.",Medium,Performing Arts,9801 Washington Blvd.,Culver City,90232,Los Angeles,CA,34.02228097,-118.3965825
5919,Los Angeles Music and Art School,Medium,Education,3630 East Third Street,Los Angeles,90063,Los Angeles,CA,34.03318197,-118.1913667
5925,WordTheatre,Very Small,Performing Arts,3213 Maplewood Avenue,Los Angeles,90066,Los Angeles,CA,34.01071212,-118.4526381
5965,Los Angeles Nomadic Division (LAND),Medium,"Museums, Visual Arts, History","8033 Sunset Blvd., Suite 455",Los Angeles,90046,Los Angeles,CA,34.09809724,-118.3646504
5976,Pacific Crest Youth Arts Organization,Medium,Performing Arts,21231 Fountain Springs Rd.,Diamond Bar,91765,Los Angeles,CA,33.97908626,-117.83979
6077,"Claremont Symphonic Winds, Inc.",Very Small,Performing Arts,75 Quiet Hills Road,Pomona,91766,Los Angeles,CA,34.0277482,-117.7692698
6081,Los Angeles Balalaika Orchestra,Very Small,Performing Arts,2525 Aurora Terrace,Alhambra,91803,Los Angeles,CA,34.06720185,-118.1497525
6125,SOL-LA Music Academy,Small,Education,1812 Stanford St.,Santa Monica,90404,Los Angeles,CA,34.03113569,-118.4639206
6136,Los Angeles Youth Orchestra,Medium,Performing Arts,15500 Stephen S. Wise Drive,Los Angeles,90049,Los Angeles,CA,34.12817327,-118.4696145
6146,Golden State Pops Orchestra/Friends of the GSPO,Small,Performing Arts,880 W. 18th Street,San Pedro,90731,Los Angeles,CA,33.72804629,-118.2965085
6149,"Colony Theatre, The",Large,Performing Arts,555 North Third Street,Burbank,91502,Los Angeles,CA,34.18522283,-118.3122283
6158,Buzzworks Theater Company,Very Small,Performing Arts,1948 Rockford Rd,Los Angeles,90039,Los Angeles,CA,34.0932684,-118.2630323
6189,OperaWorks,Small,Performing Arts,"9836 White Oak Avenue, Suite 102",Northridge,91325,Los Angeles,CA,34.2495493,-118.5195856
6245,Skylight Theatre Company,Small,Performing Arts,254 South Robertson Boulevard,Beverly Hills,90211,Los Angeles,CA,34.06330979,-118.3832329
6249,Minyo Station,Very Small,Performing Arts,16925  So. Denker Ave,Gardena,90247,Los Angeles,CA,33.87766899,-118.3051235
6266,"Production Company LA, Inc., The",Very Small,Performing Arts,6435 Blewett Ave.,Van Nuys,91406,Los Angeles,CA,34.18768648,-118.4786226
6273,West of Broadway Theater Company,Very Small,Performing Arts,23852 Pacific Coast Highway #912,Malibu,90265,Los Angeles,CA,34.03373514,-118.7144303
6274,Neighborhood Music School Association,Small,Education,358 S. Boyle Ave.,Los Angeles,90033,Los Angeles,CA,34.04373163,-118.2193068
6408,Repertory Opera Company,Very Small,Performing Arts,152 E. Kingsley Ave.,Pomona,91767,Los Angeles,CA,34.06657803,-117.7503655
6416,"Concert Singers, The",Very Small,Performing Arts,PO Box 90327,Los Angeles,90009,Los Angeles,CA,33.946348,-118.379884
6481,Verdugo Young Musicians Association,Small,Performing Arts,PO Box 8343,La Crescenta,91224,Los Angeles,CA,34.227961,-118.246396
6515,Los Angeles Symphony,Small,Performing Arts,1234 Wilshire Bivd.,Los Angeles,90017,Los Angeles,CA,34.05307497,-118.2660876
6583,Glendale Youth Orchestra,Very Small,Performing Arts,P.O.BOX  4401,Glendale,91222,Los Angeles,CA,34.15922,-118.262561
6591,Rogue Machine Theatre,Small,Performing Arts,5041 W. Pico Blvd,Los Angeles,90019,Los Angeles,CA,34.04793657,-118.3474351
6600,Athena Theatre,Very Small,Performing Arts,"6613 Irvine Ave, #4",North Hollywood,91606,Los Angeles,CA,34.1905856,-118.385753
6730,Pasadena Young Musicians Orchestra,Very Small,Performing Arts,P.O. box 50386,Pasadena,91115,Los Angeles,CA,34.135882,-118.151588
6734,Playwrights' Arena,Very Small,Performing Arts,514 S. Spring St.,Los Angeles,90013,Los Angeles,CA,34.04673304,-118.2497377
6880,LACA Music Foundation Corporation,Very Small,Performing Arts,"5622 Rosemead Blvd.,",Temple City,91780,Los Angeles,CA,34.10179335,-118.0733635
6890,"Pasadena Community Orchestra, The",Very Small,Performing Arts,P. O. Box 92917,Pasadena,91109,Los Angeles,CA,34.167069,-118.164718
6897,"Topanga Symphony, The",Very Small,Performing Arts,4360 Park Alisal,Calabasas,91302,Los Angeles,CA,34.14834199,-118.6397634
7007,Society Of Heritage Performers,Very Small,Performing Arts,2041 N. Vermont Ave #400,Los Angeles,90027,Los Angeles,CA,34.10871078,-118.291883
7030,Kaya Press,Small,"Broadcasters, Producers, TV, Film & Digital Media",3620 S Vermont Ave KAP 462,Los Angeles,90089,Los Angeles,CA,34.02256596,-118.2914468
7783,SeaGlass Theatre,Very Small,Performing Arts,10153 1/2 Riverside Dr,Tuluca Lake,91602,Los Angeles,CA,34.15229577,-118.3520787
8588,Fantasia Family Music,Small,Performing Arts,741 Avenue C,Redondo Beach,90277,Los Angeles,CA,33.82538088,-118.3806764
8739,Pasadena Master Chorale Association,Small,Performing Arts,"1443 E. Washington Blvd., #209",Pasadena,91104,Los Angeles,CA,34.16915856,-118.1205941
8868,West of Rome Public Art,Small,"Museums, Visual Arts, History",380 South Lake Ave.,Pasadena,91101,Los Angeles,CA,34.13934779,-118.1322074
9036,Golden Sands Chorus,Very Small,Performing Arts,1100 Newport Ave,Long Beach,90804,Los Angeles,CA,33.78103428,-118.1510081
9073,"Avenue 34 Project, The",Very Small,Support & Advocacy,960 South Oxford Ave,Los Angeles,90006,Los Angeles,CA,34.05373902,-118.3070981
9122,Norooz in Pasadena,Very Small,Performing Arts,1722 Asbury drive Pasadena Ca,Pasadena,91104,Los Angeles,CA,34.16630122,-118.1151238
9241,GO-FAME Youth Theater Company,Very Small,Education,5848 Fairbrook Street,Long Beach,90815,Los Angeles,CA,33.79224054,-118.1182077
9287,Santa Monica Chapter of Sweet Adelines Inc.,Very Small,Performing Arts,137 Spinnaker Mall,Marina Del Rey,90292,Los Angeles,CA,33.97009188,-118.4564902
9399,DA Gallery,Very Small,Community,252 D South Main Street,Pomona,91766,Los Angeles,CA,34.05730698,-117.7522088
9430,CAPE (Coalition of Asian Pacifics in Entertainment),Small,Support & Advocacy,10 Universal City Plaza,Universal City,91608,Los Angeles,CA,34.13791137,-118.3613093
9560,L.A. GOAL Performing Arts,Very Small,Performing Arts,4911 Overland Avenue,Culver City,90230,Los Angeles,CA,34.00927945,-118.3982659
9637,Luminario Ballet of Los Angeles,Very Small,Performing Arts,5863 Alcove Ave,Valley Village,91607,Los Angeles,CA,34.17756679,-118.412974
9648,American Foundation for Tibetan Cultural Preservation,Small,Community,75 S Grand Avenue #217,Pasadena,91105,Los Angeles,CA,34.14383587,-118.1619395
9668,Alliance of Women Filmmakers,Very Small,"Broadcasters, Producers, TV, Film & Digital Media",1317 N San Fernando Blvd,Burbank,91504,Los Angeles,CA,34.18933455,-118.3204288
9728,Watts\Century Latino Organization,Small,Community,10360 Wilmington Ave,Los Angeles,90002,Los Angeles,CA,33.9419687,-118.2387006
9731,Craft in America Inc.,Large,"Museums, Visual Arts, History",1120 S. Robertson Blvd.,Los Angeles,90035,Los Angeles,CA,34.05661461,-118.3835868
9737,Zocalo Public Square,Medium,"Museums, Visual Arts, History",5042 Wilshire Blvd #288,Los Angeles,90036,Los Angeles,CA,34.06204053,-118.3392412
9742,Clairobscur Dance Company,Very Small,Performing Arts,908 S Tremaine,Los Angeles,90019,Los Angeles,CA,34.05842964,-118.3366717
9775,Pennington Dance Group,Very Small,Performing Arts,7985 Santa Monica PMB-204,Los Angeles,90046,Los Angeles,CA,34.09111017,-118.3640738
9782,"Mural Conservancy of Los Angeles, The",Small,"Museums, Visual Arts, History",3633 Eastham Dr.,Culver City,90232,Los Angeles,CA,34.02304313,-118.3785128
9786,Arts Alive,Small,Performing Arts,3931 W 148th Street,Hawthorne,90250,Los Angeles,CA,33.89709077,-118.3427927
9787,California State Summer School Arts Foundation,Medium,Education,"c/o SingerLewak 10960 Wilshire Blvd., Suite 700",Los Angeles,90024,Los Angeles,CA,34.060189,-118.4364
9819,Metropolitan Master Chorale,Very Small,Performing Arts,P.O. Box 481318,Los Angeles,90048,Los Angeles,CA,34.073253,-118.377034
9823,La Mirada Theatre for the Performing Arts Foundation,Small,Community,13700 La Mirada Blvd,La Mirada,90638,Los Angeles,CA,33.90656742,-118.0116077
9855,"Team Theatrics, Inc.",Small,Performing Arts,18138 Sherman Way,Reseda,91335,Los Angeles,CA,34.20091827,-118.5281618
9884,Show Box LA,Very Small,Performing Arts,1060 S. Ogden Drive #2,Los Angeles,90019,Los Angeles,CA,34.05593817,-118.3623762
9887,"Just Lovin' Music Studios, Inc",Very Small,Performing Arts,333 W Florence Avenue,Inglewood,90301,Los Angeles,CA,33.96759863,-118.3510258
9921,Sacred Fools Theater,Small,Performing Arts,660 N. Heliotrope Dr.,Los Angeles,90004,Los Angeles,CA,34.08282215,-118.2952206
9931,Santa Clarita Shakespeare Festival,Small,Performing Arts,PO Box,Valencia,91385,Los Angeles,CA,34.389797,-118.558445
9974,Santa Clarita Valley Youth Orchestra Foundation,Very Small,Performing Arts,26455 Rockwell Canyon Road,Valencia,91355,Los Angeles,CA,34.40583112,-118.5734388
9998,MUSYCA,Small,Performing Arts,10110 melinda way #5,Northridge,91325,Los Angeles,CA,34.25400495,-118.5278592
10048,La Mirada Symphony,Very Small,Performing Arts,14774 TACUBA DR.,La Mirada,90638,Los Angeles,CA,33.91336271,-118.0174729
10143,Italian American Museum of Los Angeles/Historic Italian Hall Foundation,Small,"Museums, Visual Arts, History",125 Paseo de la Plaza,Los Angeles,90012,Los Angeles,CA,34.063679,-118.238854
10150,California International Theatre Festival,Small,Community,3714 Whitespeak Drive,Sherman Oaks,91403,Los Angeles,CA,34.13654515,-118.4633278
10156,Elemental Strings,Small,Education,1717 4th St Suite 300,Santa Monica,90405,Los Angeles,CA,34.0118805,-118.4896934
10255,Electric Lodge,Small,Performing Arts,1416 Electric Ave,Venice,90291,Los Angeles,CA,33.99117854,-118.4655348
10269,"Cinefamily, The",Large,"Broadcasters, Producers, TV, Film & Digital Media",611 N. Fairfax Ave,Los Angeles,90036,Los Angeles,CA,34.08200708,-118.3617989
10284,Demon Theater,Very Small,Performing Arts,1270 North Hayworth ave,Los Angeles,90046,Los Angeles,CA,34.09397551,-118.3625851
10341,A D Museum (Architecture and Design Museum),Medium,"Museums, Visual Arts, History",6032 Wilshire Boulevard,Los Angeles,90036,Los Angeles,CA,34.06268734,-118.3601899
10342,CITYstage,Small,Performing Arts,1926 Rodney Dr.,Los Angeles,90027,Los Angeles,CA,34.10602333,-118.2887815
10352,Screamfest,Small,"Broadcasters, Producers, TV, Film & Digital Media",8840 Wilshire Blvd.,Beverly Hills,90211,Los Angeles,CA,34.06693415,-118.3848138
10439,VS. Theatre Company,Very Small,Support & Advocacy,5453 West Pico Blvd.,Los Angeles,90019,Los Angeles,CA,34.04885446,-118.3570373
10454,AFI Fest,Large,"Broadcasters, Producers, TV, Film & Digital Media",2021 N. Western Ave.,Los Angeles,90027,Los Angeles,CA,34.10783451,-118.3101313
10635,Teatro Jornalero Sin Fronteras,Very Small,Performing Arts,708 Traction Avenue,Los Angeles,90013,Los Angeles,CA,34.04529805,-118.2364217
10818,"Actors Project, The",Very Small,Performing Arts,6108 Fairfield St.,Los Angeles,90022,Los Angeles,CA,34.01193093,-118.1409182
10830,Bard In The Yard,Very Small,Community,4250 1/2 Atlantic Avenue,Long Beach,90807,Los Angeles,CA,33.83352058,-118.1849083
10980,Opera A La Carte,Very Small,Performing Arts,556 S Fair Oaks Avenue,Pasadena,91105,Los Angeles,CA,34.13630252,-118.1502918
10994,TheatreWorkers Project,Very Small,Performing Arts,1795 La Loma Rd,Pasadena,91105,Los Angeles,CA,34.13543547,-118.1838121
11073,Padua Hills Playwright's Workshop-Festival,Very Small,Performing Arts,840 Micheltorena Street,Los Angeles,90026,Los Angeles,CA,34.083168,-118.2782148
11089,Theatre Americana,Very Small,Performing Arts,2766 E. Del Mar Blvd.,Pasadena,91107,Los Angeles,CA,34.14186278,-118.0932323
11425,GlobalGirl Media,Small,"Broadcasters, Producers, TV, Film & Digital Media",4203 Jackson Ave.,Culver City,90232,Los Angeles,CA,34.01436716,-118.3945904
11459,"Los Angeles Chamber Choir, Inc.",Very Small,Performing Arts,3335 Isabel Avenue,Rosemead,91770,Los Angeles,CA,34.06900866,-118.1027875
11531,"Pasadena Musical Theatre Corporation, The",Very Small,Performing Arts,3579 E. Foothill Boulevard,Pasadena,91107,Los Angeles,CA,34.15025342,-118.0763807
11543,LA Plaza de Cultura y Artes,Large,"Museums, Visual Arts, History",501 N Main Street,Los Angeles,90012,Los Angeles,CA,34.05627742,-118.2397523
11573,Outpost Theatre Ensemble,Very Small,Performing Arts,"355 S. Madison Ave., #114",Pasadena,91101,Los Angeles,CA,34.13947411,-118.1387282
11582,Nancy Evans Dance Theatre,Very Small,Performing Arts,61 S. Baldwin Avenue,Sierra Madre,91025,Los Angeles,CA,34.16062102,-118.0528583
11587,Literature for Life,Very Small,"Broadcasters, Producers, TV, Film & Digital Media",PO Box 2116,Pasadena,91102,Los Angeles,CA,34.148314,-118.143097
11589,Pasadena Literary Festival,Very Small,"Broadcasters, Producers, TV, Film & Digital Media",PO Box 2116,Pasadena,91102,Los Angeles,CA,34.148314,-118.143097
11631,Indelible Ink: a Vanguard Performance Art Series,Very Small,Performing Arts,3579 E Foothill Blvd,Pasadena,91107,Los Angeles,CA,34.15025342,-118.0763807
11743,LAUNCH LA,Small,Support & Advocacy,5858 Wilshire Blvd.,Los Angeles,90036,Los Angeles,CA,34.06219285,-118.3562924
11792,Ace Museum,Large,"Museums, Visual Arts, History",400 S. La Brea Ave,Los Angeles,90036,Los Angeles,CA,34.07849725,-118.3436994
11853,Pablove Foundation inc.,Medium,Community,6607 West Sunset Boulevard,Los Angeles,90028,Los Angeles,CA,34.09807256,-118.3335539
11893,National Children's Chorus,Medium,Performing Arts,1536 Selby Avenue,Los Angeles,90024,Los Angeles,CA,34.05477747,-118.4369543
11933,Repertory Dance Theatre of Los Angeles,Very Small,Performing Arts,6752 3rd Avenue,Los Angeles,90043,Los Angeles,CA,33.97673609,-118.3203759
11956,FLAX (France Los Angeles Exchange),Small,Community,9255 W. Sunset Blvd.,West Hollywood,90069,Los Angeles,CA,34.09011961,-118.3932239
11957,Angel City Arts,Small,Support & Advocacy,5426 Los Feliz Blvd.,Los Angeles,90027,Los Angeles,CA,34.10790202,-118.3077134
12014,Santa Clarita Artists' Associaton,Very Small,"Museums, Visual Arts, History","26893 Bouquet Canyon Rd., Ste. C, #305",Santa Clarita,91350,Los Angeles,CA,34.43376866,-118.5289978
12038,Indian Performing Art Center,Very Small,Performing Arts,10841 TOPEKA DR,Porter Ranch,91326,Los Angeles,CA,34.26706645,-118.5456744
12051,Pasadena Pro Musica,Very Small,Performing Arts,301 North Orange Grove Boulevard,Pasadena,91103,Los Angeles,CA,34.15161893,-118.1602153
12065,LA South Towns Show Chorus,Very Small,Performing Arts,"2790 Skypark Drive, Suite 306",Torrance,90505,Los Angeles,CA,33.80436441,-118.3353488
12104,Sierra Madre Playhouse,Small,Performing Arts,87 West Sierra Madre Boulevard,Sierra Madre,91024,Los Angeles,CA,34.16210061,-118.0546211
12108,Do Art Foundation,Small,"Museums, Visual Arts, History",2870 Los Feliz Place #305,Los Angeles,90039,Los Angeles,CA,34.12634437,-118.2622662
12347,Veteran Memorial Committee Inc.,Very Small,Support & Advocacy,23304 Happy Valley Dr.,Newhall,91321,Los Angeles,CA,34.37551725,-118.5379376
12394,"ARTree Community Arts Center, The",Very Small,Community,P.O. Box 221283,Newhall,91321,Los Angeles,CA,34.379025,-118.520802
12432,Jouyssance Early Music Ensemble,Very Small,Performing Arts,2704 Armstrong Avenue,Los Angeles,90039,Los Angeles,CA,34.10557281,-118.2652713
12451,"Red Brick Road, The",Very Small,Performing Arts,12300 Sherman Way,North Hollywood,91605,Los Angeles,CA,34.19994481,-118.4013921
12458,Glendale Philharmonic Orchestra,Very Small,Performing Arts,3030 Waverly Drive,Los Angeles,90039,Los Angeles,CA,34.1107828,-118.2682021
12474,for our youth,Very Small,Education,15664 kalisher st,Granada Hills,91344,Los Angeles,CA,34.27696891,-118.4736164
12476,Korean American Music Foundation,Very Small,Performing Arts,3130 W. Olympic Blvd. #420,Los Angeles,90006,Los Angeles,CA,34.05251393,-118.3041447
12576,Create Fixate Foundation,Very Small,"Museums, Visual Arts, History",242 Dimmick Ave.,Venice,90291,Los Angeles,CA,33.99942938,-118.4731628
12595,Burbank Philharmonic Orchestra,Very Small,Performing Arts,PO Box 6345,Burbank,91510,Los Angeles,CA,34.173285,-118.345911
12648,Los Angeles Performance Practice,Small,Performing Arts,13152 Cheterwood St,Sylmar,91342,Los Angeles,CA,34.303046,-118.42194
13258,ACFCLA - Artist Community For Change LA,Very Small,Support & Advocacy,6522 Rhea Ave.,Reseda,91335,Los Angeles,CA,34.18908067,-118.5410692
13288,NewFilmmakers Los Angeles,Medium,"Broadcasters, Producers, TV, Film & Digital Media",1438 N. Gower St.,Los Angeles,90028,Los Angeles,CA,34.09691157,-118.3221976
13446,Armenian Identity Harvest,Very Small,Community,2390 Cooley Place,Pasadena,91104,Los Angeles,CA,34.16311843,-118.1007652
13638,"Dance Into Unity, Inc.",Small,Support & Advocacy,1044 4th Street,Santa Monica,90403,Los Angeles,CA,34.0211997,-118.500854
13671,LitFest Pasadena,Very Small,"Broadcasters, Producers, TV, Film & Digital Media",65 S. Grand Ave,Pasadena,91105,Los Angeles,CA,34.14395489,-118.1619163
13950,Kadima Conservatory of Music,Small,Performing Arts,14023 Chandler Blvd,Sherman Oaks,91401,Los Angeles,CA,34.16880804,-118.4384452
13992,Regional Organization of Oaxaca,Small,Support & Advocacy,5120 N. Saint Malo Ave.,Covina,91722,Los Angeles,CA,34.10535633,-117.9228728
14000,Cambodia Town Inc.,Very Small,Community,2201 East Anaheim Street Suite 103,Long Beach,90804,Los Angeles,CA,33.78268818,-118.1654629
14017,Emerging Arts Leaders/Los Angeles,Very Small,Support & Advocacy,c/o Community Partners,Los Angeles,90012,Los Angeles,CA,34.063679,-118.238854
14026,Los Angeles Drama Club,Very Small,Performing Arts,1210 S. Sycamore Ave,Los Angeles,90019,Los Angeles,CA,34.05297038,-118.3459098
14058,Academy Foundation,Very Large,"Broadcasters, Producers, TV, Film & Digital Media",8949 Wilshire Boulevard,Beverly Hills,90211,Los Angeles,CA,34.06713169,-118.3869519
14083,Impro Theatre,Small,Performing Arts,1727 N. Vermont,Los Angeles,90027,Los Angeles,CA,34.0418899,-118.2918495
14128,"Green Lifestyle Film Festival, Inc., The",Very Small,"Broadcasters, Producers, TV, Film & Digital Media",520 North Kings Road,Los Angeles,90048,Los Angeles,CA,34.08094078,-118.3719061
14144,Dramatic Results,Medium,Education,3310 Lime Avenue,Signal Hill,90755,Los Angeles,CA,33.81875986,-118.1838358
14145,Baricid Foundation,Very Small,Community,1801 N Kingsley Dr #102,Los Angeles,90027,Los Angeles,CA,34.10363814,-118.3039482
14153,Celebrate Israel Festival,Medium,Community,5900 Canoga Ave. Suite 390,Woodland Hills,91367,Los Angeles,CA,34.17764676,-118.5965133
14163,Brentwood Westwood Symphony Orchestra,Very Small,Performing Arts,203 West Artesia Blvd,Compton,90220,Los Angeles,CA,33.8747047,-118.2233171
14164,WE CAN Foundation arts and entertainment,Very Small,Community,4329 Degnan Blvd,Los Angeles,90008,Los Angeles,CA,34.00547925,-118.3315445
14170,Fierce Backbone,Very Small,Performing Arts,5419 Hollywood Boulevard,Los Angeles,90027,Los Angeles,CA,34.10182803,-118.3075893
14171,Human Resources,Very Small,Education,510 Bernard St,Los Angeles,90012,Los Angeles,CA,34.06719609,-118.2378251
14172,"Phoenix Rising at ABC Learn, Inc.",Very Small,Performing Arts,11076 Norris Avenue,Pacoima,91331,Los Angeles,CA,34.2714444,-118.4172045
14173,"Tyler Project, The",Very Small,Education,13547 Ventura Blvd #665,Los Angeles,91423,Los Angeles,CA,34.14789566,-118.4286322
14176,Cambridge Players Inc.,Very Small,Performing Arts,"1007 N. Sepulveda Blvd, #247 Manhattan Beach, California",Manhattan Beach,90267,Los Angeles,CA,33.874322,-118.39546
14180,Woodland Hills Community Theatre,Small,Performing Arts,5082 Llano Drive,Woodland Hills,91364,Los Angeles,CA,34.16066876,-118.6088715
14296,Metropolitan Educational Theatre Network,Medium,Performing Arts,232 Savona Walk,Long Beach,90803,Los Angeles,CA,33.75459437,-118.1180674
14403,MashUp Contemporary Dance Company,Small,Performing Arts,2634 Armstrong Avenue,Los Angeles,90039,Los Angeles,CA,34.10506607,-118.2647311
14489,Azure Lorica,Very Small,Performing Arts,"13341 Cantara Street, Panorama City, CA",Panorama City,91402,Los Angeles,CA,34.22011929,-118.4241836
14526,Wicked Lit,Small,Performing Arts,107 W. Dryden St.,Glendale,91202,Los Angeles,CA,34.1616694,-118.2555604
14546,"Music Unlocks Success In Children Foundation Inc, The",Small,Education,21701 Ambar Drive,Woodland Hills,91364,Los Angeles,CA,34.14167419,-118.5996183
14554,IVRT (Inland Valley Repertory Theatre),Very Small,Performing Arts,P.O. Box 7743,La Verne,91750,Los Angeles,CA,34.117986,-117.768243
14567,"Dream A World Education, Inc.",Small,Education,1707 So. Crescent Heights Blvd,Los Angeles,90035,Los Angeles,CA,34.04651228,-118.3738764
14580,Vincent Price Art Museum,Small,"Museums, Visual Arts, History",East Los Angeles College,Monterey Park,91754,Los Angeles,CA,34.048466,-118.14974
14581,Golden Valley High School Band and Color Guard Boosters,Very Small,Performing Arts,27051 Robert C. Lee Parkway,Santa Clarita,91350,Los Angeles,CA,34.485022,-118.42802
14589,"Center for Architecture and Urban Design, Los Angeles",Very Small,"Broadcasters, Producers, TV, Film & Digital Media",3780 Wilshire Blvd,Los Angeles,90010,Los Angeles,CA,34.06160511,-118.308613
14600,Hollywood HEART,Small,Education,301 East Colorado Boulevard,Pasadena,91101,Los Angeles,CA,34.14583754,-118.1567955
14616,Theatre Unleashed,Very Small,Performing Arts,"827 Hollywood Way, #271",Burbank,91505,Los Angeles,CA,34.16481146,-118.3455992
14643,Sangeet School of World Music,Very Small,Performing Arts,3800 Canon Blvd.,Altadena,91001,Los Angeles,CA,34.20628993,-118.1356168
14644,California Performing Arts Centre,Small,Performing Arts,1000 Fremont Ave.,South Pasadena,91030,Los Angeles,CA,34.11447206,-118.1527422
14820,Hart Pulse Dance Company,Very Small,Performing Arts,P.O. Box 5450,North Hollywood,91616,Los Angeles,CA,34.184197,-118.396049
15109,Mojacar Flamenco,Very Small,Performing Arts,721 Mound Ave,South Pasadena,91030,Los Angeles,CA,34.11754275,-118.1518086
15225,"Industry, The",Large,Performing Arts,846 1/2 Sanborn Ave,Los Angeles,90029,Los Angeles,CA,34.08727981,-118.2840055
15290,SuarezDanceTheater,Very Small,Performing Arts,621 California Avenue #A,Santa Monica,90403,Los Angeles,CA,34.02267122,-118.4976995
15346,SkyPilot Theatre Company Inc.,Very Small,Performing Arts,12439 Magnolia Boulevard,Los Angeles,91607,Los Angeles,CA,34.16496215,-118.4042883
15348,Westside Ballet of Santa Monica,Small,Performing Arts,1709 Stewart Street,Santa Monica,90404,Los Angeles,CA,34.03154582,-118.4674135
15360,Orchestra Santa Monica,Small,Performing Arts,P.O. Box 1763,Santa Monica,90406,Los Angeles,CA,34.018176,-118.497198
15372,Blue Milagro,Very Small,Community,1769 Las Lunas St,Pasadena,91106,Los Angeles,CA,34.15664999,-118.1139153
15379,MUSE/IQUE,Large,Support & Advocacy,"300 E Green St, 3rd Fl",Pasadena,91101,Los Angeles,CA,34.14359062,-118.1444481
15529,Arts & Culture Program of Rising TIDE,Very Small,Education,607 E. 3rd St,Long Beach,90802,Los Angeles,CA,33.77058548,-118.1849846
15601,Los Angeles Downtown Arts District Space,Small,Community,215 South Santa Fe Ave,Los Angeles,90012,Los Angeles,CA,34.0463277,-118.2330113
15610,Pacific Opera Project,Small,Performing Arts,6216 Annan Way,Highland Park,90042,Los Angeles,CA,34.12950995,-118.1849554
15630,Eclectic Company Theatre,Small,Performing Arts,5312 Laurel Canyon Blvd,Los Angeles,91607,Los Angeles,CA,34.16689797,-118.3964091
15741,Ethiopian Community Development Center,Very Small,Community,400 Hauser Boulevard #3D,Los Angeles,90036,Los Angeles,CA,34.06735896,-118.3498328
15746,Los Angeles Arboretum Foundation,Large,"Museums, Visual Arts, History",301 North Baldwin Avenue,Arcadia,91007,Los Angeles,CA,34.14390456,-118.0511942
15755,"Stage Of The Arts, Inc.",Very Small,Support & Advocacy,4423 1/2 Santa Monica Blvd.,Los Angeles,90029,Los Angeles,CA,34.09086936,-118.28499
15765,OSMAF (Olvera Street Merchants Association Foundation),Very Small,Community,W-10 Olvera Street,Los Angeles,90012,Los Angeles,CA,34.05699644,-118.2384515
15767,Artist Consortium (Hae Kyung Lee & Dancers),Very Small,Performing Arts,1869 Marney Avenue,Los Angeles,90032,Los Angeles,CA,34.06344833,-118.17674
15771,Heal One World's Awareness Festival,Very Small,Community,3503 W. Pico Blvd,Los Angeles,90019,Los Angeles,CA,34.04726002,-118.3189398
15779,Pony Box,Very Small,Performing Arts,7009 East Keynote Street,Long Beach,90808,Los Angeles,CA,33.82288279,-118.0969012
15782,Theatre 40,Small,Performing Arts,241 South Moreno Dr,Beverly Hills,90212,Los Angeles,CA,34.06119016,-118.4109321
15795,Crescendo Young Musicians Guild,Very Small,Performing Arts,525 S. Berendo Street,Los Angeles,90020,Los Angeles,CA,34.06475685,-118.2945029
15797,Zanbeel Art Inc.,Very Small,Support & Advocacy,921 Georgina Ave.,Santa Monica,90402,Los Angeles,CA,34.03415979,-118.5056536
15969,Antics,Very Small,Performing Arts,4356 Westlawn Ave,Los Angeles,90066,Los Angeles,CA,33.99341595,-118.4262787
15994,Burbank International Film Festival,Very Small,"Museums, Visual Arts, History",2600 W. Olive Ave. Fifth Floor,Burbank,91505,Los Angeles,CA,34.1602947,-118.3302821
15996,Arts Council of Torrance,Very Small,Support & Advocacy,"2742 Cabrillo Ave., #111",Torrance,90501,Los Angeles,CA,33.81984258,-118.315617
15999,Chalk Rep,Very Small,Performing Arts,PO Box 27368,Los Angeles,90027,Los Angeles,CA,34.12356,-118.28784
16053,Michael Hoefflin Foundation for Children's Cancer,Very Small,Education,26470 Ruether Ave,Santa Clarita,91350,Los Angeles,CA,34.41536246,-118.4986641
16070,Mountainside Master Chorale,Very Small,Performing Arts,1577 Lafayette Road,Claremont,91711,Los Angeles,CA,34.11299704,-117.7268651
16074,Lower Depth Theater Ensemble,Very Small,Performing Arts,134 N. Larchmont Blvd.,Los Angeles,90004,Los Angeles,CA,34.07357517,-118.3234419
16123,Stay Gallery,Very Small,"Museums, Visual Arts, History",11140 Downey Ave.,Downey,90241,Los Angeles,CA,33.94059364,-118.1326212
16155,Hollywood Youth Theatre,Very Small,Education,4201 W Kling St,Burbank,91505,Los Angeles,CA,34.157009,-118.3483152
16162,Coeurage Theatre Company,Very Small,Performing Arts,1420 N Alta Vista Blvd,Los Angeles,90046,Los Angeles,CA,34.09652953,-118.3466062
16173,Hungarian Theatre of Southern California,Very Small,Performing Arts,901 N. Lamer St.,Burbank,91506,Los Angeles,CA,34.17867575,-118.3324743
16186,Orpheum Theater Corporation,Very Small,Performing Arts,11606 Kling Street,Los Angeles,91602,Los Angeles,CA,34.15552336,-118.3859075
16199,Bellflower Civic Chorus,Very Small,Performing Arts,P.O. Box 1058,Bellflower,90707,Los Angeles,CA,33.88235,-118.122206
16403,Filipino American Symphony Orchestra,Very Small,Performing Arts,6621 Denny Avenue,Los Angeles,91606,Los Angeles,CA,34.19069266,-118.364948
16447,Cultural Alliance of Long Beach,Very Small,Community,729 Pine Avenue,Long Beach,90813,Los Angeles,CA,33.77592012,-118.1924668
16823,Center Stage Opera,Very Small,Performing Arts,PO Box 371091,Reseda,91337,Los Angeles,CA,34.202639,-118.534607
16840,Los Angeles League of Arts,Small,Support & Advocacy,3593 Griffin Ave,Lincoln Heights,90031,Los Angeles,CA,34.08673309,-118.2096947
16869,Santa Monica Repertory Theater,Very Small,Performing Arts,1833 12th Street,Santa Monica,90404,Los Angeles,CA,34.01637714,-118.479853
17107,DCLA (Dancing Classrooms Los Angeles),Small,Performing Arts,PO Box 5792,Santa Monica,90409,Los Angeles,CA,34.003022,-118.485621
17117,City Hearts: Kids Say 'Yes' to the Arts,Small,Education,120 S. Topanga Canyon Blvd.,Topanga,90290,Los Angeles,CA,34.08915846,-118.6037362
17119,San Gabriel Mission Playhouse,Medium,Performing Arts,320 S Mission Dr,San Gabriel,91776,Los Angeles,CA,34.09844013,-118.1090677
17127,Corita Art Center,Small,"Museums, Visual Arts, History",5515 Franklin Ave,Los Angeles,90028,Los Angeles,CA,34.10672213,-118.310747
17146,Jewish Community Children's Choir,Very Small,Performing Arts,9623 Sawyer Street,Los Angeles,90035,Los Angeles,CA,34.051619,-118.38358
17177,Giving Music,Very Small,Performing Arts,623 Sunnyhill Dr.,Glassell,90065,Los Angeles,CA,34.10601773,-118.2095569
17197,DOMA Theatre Company,Very Small,Performing Arts,603 E. University Dr. Suite B,Carson,90746,Los Angeles,CA,33.85851464,-118.2656651
17209,Clockshop,Very Small,"Museums, Visual Arts, History",2806 Clearwater Street,Los Angeles,90039,Los Angeles,CA,34.10720371,-118.2530384
17222,South Bay Contemporary,Very Small,"Museums, Visual Arts, History",550 Deep Valley Drive Suite 151,Palos Verdes Estates,90274,Los Angeles,CA,33.77256399,-118.3730512
17248,Echo Park Community Parade,Very Small,"Museums, Visual Arts, History",1157 Lemoyne Street,Los Angeles,90026,Los Angeles,CA,34.07744691,-118.2597842
17299,Fringe Benefits Alliance,Very Small,Performing Arts,2669 1/4  Waverly Drive,Los Angeles,90039,Los Angeles,CA,34.10760331,-118.2602353
17312,Los Angeles Clarinet Choir,Very Small,Performing Arts,10905 Meseta Ave,Los Angeles,91040,Los Angeles,CA,34.2555853,-118.3686024
17316,Downtown Repertory Theater Company,Very Small,Performing Arts,4127 Monterey Street,Glassell,90065,Los Angeles,CA,34.09814064,-118.214772
17370,inner city shakespeare ensemble,Small,Performing Arts,1666 N Beverly Drive,Beverly Hills,90210,Los Angeles,CA,34.101202,-118.4159071
17388,"GRAMMY Foundation, The",Large,"Broadcasters, Producers, TV, Film & Digital Media",3030 Olympic Boulevard,Santa Monica,90404,Los Angeles,CA,34.02992815,-118.4644031
17398,Santa Clarita Philharmonic,Very Small,Performing Arts,27975 Red Pine Ct,Santa Clarita,91354,Los Angeles,CA,34.45428296,-118.5547159
17413,"Writers Guild Foundation, The",Medium,"Broadcasters, Producers, TV, Film & Digital Media",7000 West Third Street,Los Angeles,90048,Los Angeles,CA,34.07115017,-118.3617313
17423,Boyle Heights Arts Conservatory,Very Small,Education,2706 E Cesar Chavez Ave,Los Angeles,90033,Los Angeles,CA,34.04478881,-118.2039383
17489,c3: Center for Conscious Creativity,Very Small,Community,600 Moulton Avenue,Lincoln Heights,90031,Los Angeles,CA,34.06591293,-118.2188561
17511,Historic Filipinotown,Very Small,Community,2001 W Beverly Blvd. Suite 201,Los Angeles,90026,Los Angeles,CA,34.06611503,-118.268838
17515,Trepany House,Very Small,Performing Arts,4773 Hollywood Blvd.,Los Angeles,90027,Los Angeles,CA,34.10186395,-118.2941857
17519,Encore Theare Group,Medium,Performing Arts,1990 Del Amo Blvd. Suite C,Torrance,90501,Los Angeles,CA,33.8467346,-118.3173345
17540,Wallis Annenberg Center for the Performing Arts,Very Large,Performing Arts,9390 N. Santa Monica Blvd.,Beverly Hills,90210,Los Angeles,CA,34.07175715,-118.4020248
17550,CCM (Casa De La Cultura Maya),Very Small,Education,501 South Bixel Street,Los Angeles,90017,Los Angeles,CA,34.05484964,-118.2620486
17583,"Strindberg Laboratory, The",Very Small,Performing Arts,3743 Arbolada Rd,Los Angeles,90027,Los Angeles,CA,34.11451242,-118.2742362
17677,Los Angeles County Law Library,Large,"Museums, Visual Arts, History",301 W. First Street,Los Angeles,90012,Los Angeles,CA,34.05437844,-118.2456823
17945,HNDP,Very Small,Community,2420 Langdale Ave.,Los Angeles,90041,Los Angeles,CA,34.12974127,-118.2195302
17949,Jazzantiqua Inc,Very Small,Performing Arts,1529 1/2 S. Bedford Street,Los Angeles,90035,Los Angeles,CA,34.0511547,-118.3810537
18000,Bright Eyes Productions,Very Small,Performing Arts,534 Dove Drive,Los Angeles,90065,Los Angeles,CA,34.1028823,-118.2103886
18027,Pieter Performance Space,Very Small,Performing Arts,420 West Avenue 33,Los Angeles,90031,Los Angeles,CA,34.08375823,-118.2168331
18032,Street Symphony,Very Small,Performing Arts,1463 1/2 Ridge Way,Los Angeles,90026,Los Angeles,CA,34.0726189,-118.2553503
18092,Women's Center for Creative Work,Very Small,Community,65 S. Grand Avenue,Pasadena,91105,Los Angeles,CA,34.14395489,-118.1619163
18114,DSTL Arts,Very Small,Community,3529 Fletcher Drive,Los Angeles,90065,Los Angeles,CA,34.11905945,-118.2373807
18121,Tierra Fine Arts,Medium,Education,9919 Sunland Blvd,Los Angeles,91040,Los Angeles,CA,34.25090864,-118.3462601
18226,Santa Monica Ukulele Festival,Very Small,Performing Arts,"2801 Ocean Park Blvd, Unit 314",Santa Monica,90405,Los Angeles,CA,34.01886733,-118.4558528
18240,Debbie Allen Dance Academy,Large,Performing Arts,3791 Santa Rosalia Drive,Los Angeles,90008,Los Angeles,CA,34.01035436,-118.3393152
18249,Ambulante USA,Small,"Broadcasters, Producers, TV, Film & Digital Media",3303 Pico Blvd,Santa Monica,90405,Los Angeles,CA,34.02696101,-118.455269
18251,SLAM!,Very Small,Community,1000 N. Alameda St.,Los Angeles,90012,Los Angeles,CA,34.05908146,-118.2367691
18259,"Remainders Creative Reuse, Inc.",Very Small,Support & Advocacy,830 Rim Road,Pasadena,91107,Los Angeles,CA,34.16082728,-118.0773734
18266,Ensemble Shakespeare Theater,Very Small,Performing Arts,89 S. Fair Oaks Ave,Pasadena,91105,Los Angeles,CA,34.14460912,-118.1505503
18318,REACH LA (Realistic Education in Action Coalition to foster Health) Cultural Arts Program,Small,Community,1400 E. Olympic Blvd.,Los Angeles,90021,Los Angeles,CA,34.04765718,-118.2714231
18331,Ate9 Dance Company,Small,Performing Arts,3118 Wilshire Blvd Ste E,Santa Monica,90403,Los Angeles,CA,34.03980065,-118.4726223
18438,Nueva Vision Community School,Very Small,Performing Arts,18858 Erwin Street,Tarzana,91335,Los Angeles,CA,34.18340422,-118.5444295
18513,"Japanese Culture and Traditions, Inc.",Very Small,Education,10230 Gaybrook ave.Downey,Downey,90241,Los Angeles,CA,33.93871321,-118.1018706
18543,Critical Mass Dance Company,Very Small,Performing Arts,1136 S. Alvarado St #31,Los Angeles,90006,Los Angeles,CA,34.04924464,-118.280919
18581,Museum Educators of Southern California,Very Small,Support & Advocacy,137 N Larchmont Blvd.,Los Angeles,90004,Los Angeles,CA,34.0719472,-118.3240026
18582,San Gabriel Valley Choral Company,Very Small,Performing Arts,101 N. Foothill Blvd.,Monrovia,91016,Los Angeles,CA,34.15156232,-118.0013796
18586,IAMA Theatre Company,Very Small,Performing Arts,5918 Chula Vista Way.,Los Angeles,90068,Los Angeles,CA,34.10728609,-118.3184702
18589,Vineyard Touring Opera Company,Very Small,Performing Arts,P.O Box 995,Claremont,91711,Los Angeles,CA,34.113043,-117.717351
18594,Hear Now Music Festival,Very Small,Performing Arts,4209 Via Arbolada,Los Angeles,90042,Los Angeles,CA,34.09536083,-118.1858942
18681,Valley Relics,Very Small,"Museums, Visual Arts, History",13212 Raymer St,North Hollywood,91605,Los Angeles,CA,34.20531723,-118.4205115
18683,PBS SoCal - Arts and Cultural Programming,Large,"Broadcasters, Producers, TV, Film & Digital Media","3080 Bristol Street, Suite 100",Costa Mesa,92626,Orange,CA,33.68523158,-117.8855498
18722,"TOI Soldier Project, The",Very Small,Education,4122 Palmwood Dr,Los Angeles,90008,Los Angeles,CA,34.01382187,-118.3445921
18725,"American Contemporary Ballet, Inc.",Small,Performing Arts,5803 W. Olympic Boulevard #5,Los Angeles,90036,Los Angeles,CA,34.05752829,-118.3560382
18781,"Vagrancy Inc., The",Very Small,Performing Arts,PO Box 29764,Los Angeles,90029,Los Angeles,CA,34.090213,-118.293835
18791,ARTLAB21 FOUNDATION,Medium,"Museums, Visual Arts, History",208 Main St,El Segundo,90245,Los Angeles,CA,33.91795712,-118.4158301
18795,Youth Institute,Medium,Education,525 East 7th Street,Long Beach,90813,Los Angeles,CA,33.77564819,-118.1986505
18812,Alhambra Educational Foundation,Medium,Education,1515 S. Mission Road,Alhambra,91803,Los Angeles,CA,34.08262826,-118.1396914
18822,Vidiots Foundation,Small,Education,302 Pico Blvd.,Santa Monica,90405,Los Angeles,CA,34.00896247,-118.4880903
18827,"Yes I Can ""Unity Through Music and Education""",Very Small,Education,19300 Nadal street,Canyon Country,91387,Los Angeles,CA,34.42503,-118.44426
18847,Hermosa Beach Youth Music,Very Small,Performing Arts,1121 3rd Street,Hermosa Beach,90254,Los Angeles,CA,33.8811708,-118.3952369
18870,Broadway Bound Players,Very Small,Performing Arts,c/o 28005 Memory Lane,Santa Clarita,91354,Los Angeles,CA,34.44512,-118.546414
18871,Inner City Youth Orchestra of Los Angeles,Small,Performing Arts,6820 South La Tijera Boulevard,Los Angeles,90045,Los Angeles,CA,33.97665806,-118.3718924
18872,Project Pit,Very Small,Community,1455 W.111th Street,Los Angeles,90047,Los Angeles,CA,33.93425265,-118.3022007
18898,Public Works Improvisational Theatre,Very Small,Performing Arts,3724 Marcia Drive,Los Angeles,90026,Los Angeles,CA,34.08674549,-118.2805723
18907,Palmdale Repertory Theater Group.,Very Small,Performing Arts,PO Box 900684,Palmdale,93590,Los Angeles,CA,34.579596,-118.088681
18917,Crayon Collection,Very Small,Education,149 S. Barrington Avenue #649,Los Angeles,90049,Los Angeles,CA,34.06483177,-118.4698262
19333,Strings & Things Puppet Theatre,Very Small,Performing Arts,2734 South Averill Ave,San Pedro,90731,Los Angeles,CA,33.7181991,-118.3077688
19448,Scholarship Audition Performance Preparatory Academy,Very Small,Education,c/o Pasadena Arts Council,Pasadena,91105,Los Angeles,CA,34.137436,-118.167057
19456,"Big Show Co., The",Very Small,Performing Arts,2423 East Glenoaks Blvd,Glendale,91206,Los Angeles,CA,34.15034581,-118.2125115
19504,California State University Dominguez Hills Foundation,Large,Education,1000 E. Victoria Street,Carson,90747,LOS ANGELES,CA,33.86714086,-118.2553408
19543,"Los Angeles Brotherhood Crusade - Black United Fund, Inc.",Large,Community,200 East Slauson Avenue,Los Angeles,90011,Los Angeles,CA,33.98892908,-118.2762948
100001,"Broad Museum, The",Medium,"Museums, Visual Arts, History",221 S. Grand Ave.,Los Angeles,90012,Los Angeles,CA,34.05430029,-118.250171
100003,City of Santa Clarita Arts and Culture,Large,Support & Advocacy,23920 Valencia Blvd.,Santa Clarita,91355,Los Angeles,CA,34.4126895,-118.5534004
100004,City of Santa Monica Cultural Affairs Division,Very Small,Support & Advocacy,1685 Main St.,Santa Monica,90401,Los Angeles,CA,34.0119687,-118.4925517
100007,"Huntington Library, Art Collections, and Botanical Gardens, The",Very Large,"Museums, Visual Arts, History",1151 Oxford Road,San Marino,91108,Los Angeles,CA,34.12841263,-118.1144071
100008,City of West Hollywood Arts & Cultural Affairs Commission,Small,Support & Advocacy,8300 Santa Monica Boulevard,West Hollywood,90069,Los Angeles,CA,34.09031336,-118.3706438
